Corporate Phone	Company Name	Address	City	State	Zip	Country
7135225100	Thai Spice Restaurant	5117 Kelvin Dr	Houston	TX	77005-2503	United States
7138380707	Thai Cottage	5124 Cedar St	Bellaire	TX	77401-4019	United States
7138690151	Pappas Restaurants, Inc.	13939 Northwest Fwy	Houston	TX	77040-5115	United States
8329342800	Eden Cafe	33418 Egypt Ln Suite 16	Magnolia	TX	77354	United States
2812888868	Main Moon Asian Bistro	2129 Fm 2920 Rd Ste 170	Spring	TX	77388-3671	United States
2812328555	Bobs Taco Station	3016 Band Rd	Rosenberg	TX	77471-8689	United States
2813344400	waterford harbor marina	800 Mariners Dr	Kemah	TX	77565-2248	United States
2813138226	BerryHill Baja Grill	13703 Southwest Fwy	Sugar Land	TX	77478-3531	United States
7135222603	Brian Oneills	5555 Morningside Dr # 100	Houston	TX	77005-3216	United States
2819910335	Hatjam Inc	6823 Spencer Hwy	Pasadena	TX	77505-1770	United States
7135287000	Alonti Café & Catering	2444 Times Blvd Ste 360	Houston	TX	77005-3292	United States
7134612028	Las Llardas	2406 Gessner Dr	Houston	TX	77080-5008	United States
7133667500	Ignite Restaurant Group	9900 Westpark Dr Ste 300	Houston	TX	77063-5287	United States
7139237418	Ambu-Health Inc	6530 Supply Row	Houston	TX	77011-4514	United States
2812404497	Cajun Gourmet	2314 Gunston Ct	Sugar Land	TX	77478-1893	United States
9793379515	El Charro T Mexican Restaurant	3015 Highway 290 W	Brenham	TX	77833-6808	United States
7138211322	New York Pizzaria	5847 San Felipe St	Houston	TX	77057-3000	United States
2815792390	Abbey Pub	2002 Fry Rd Ste 125	Houston	TX	77084-5802	United States
2813976730	Rick's Cabaret International, Inc.	10959 Cutten Rd	Houston	TX	77066-5003	United States
7133296800	Koo Koo Roo	13111 North Fwy	Houston	TX	77060-1003	United States
7138622020	Cadillac Bar	1802 Shepherd Dr	Houston	TX	77007-2245	United States
7133296800	Luby's, Inc.	13111 Northwest Fwy Ste 600	Houston	TX	77040-6392	United States
2142658044	Texadelphia	5535 Memorial Dr Ste O	Houston	TX	77007-8023	United States
7138501010	McCormick & Schmick's Seafood Restaurants, Inc.	1510 West Loop S	Houston	TX	77027-9505	United States
2817704969	Lynette D Thomas	6411 Creekwind Cir	Houston	TX	77084-1288	United States
7136656226	Rustika Cafe Bakery	3237 Southwest Fwy	Houston	TX	77027-7503	United States
7138501010	Landry's Inc.	1510 West Loop S	Houston	TX	77027-9505	United States
8327726301	Lupe Tortilla Mexican Restaurant	15115 Park Row Ste 165	Houston	TX	77084-4959	United States
2814803337	Perrys Restaurants	1051 Pineloch Dr Ste 800	Houston	TX	77062-2738	United States
2815806088	Houston Pizza Venture	13131 Champions Dr Ste 110	Houston	TX	77069-3220	United States
2813749966	Pauls Pizza Shop 1	16702 Stuebner Airline Rd	Spring	TX	77379-7320	United States
2813341010	Cardinal Culinary Services	1905 Capri Ln	Seabrook	TX	77586-2801	United States
4097623474	Saltwater Grill	2017 Post Office St	Galveston	TX	77550-2021	United States
7134649319	gas grill and light inc	1756 Blalock Rd	Houston	TX	77080-7329	United States
7133296800	Fuddruckers	13111 North Fwy	Houston	TX	77060-1003	United States
4098381976	Jason's Deli	2400 Broadway St	Beaumont	TX	77702-1904	United States
7135262770	Ginger Man the	5607 Morningside Dr	Houston	TX	77005-3218	United States
7132221993	Ncn Group Inc	1800 Texas St	Houston	TX	77003-3044	United States
7139570957	Cafe Red Onion	12440 Northwest Fwy	Houston	TX	77092-3114	United States
7135229306	El Meson Cuban Restaurant	2425 University Blvd	Houston	TX	77005-3226	United States
4097441500	The San Luis Resort	5222 Seawall Blvd	Galveston	TX	77551-4003	United States
7139790700	Big Woodrows	PO BOX 421043	Houston	TX	77242-1043	United States
7136784333	Vimjee Inc	302 N Main St Ste E	Highlands	TX	77562-2843	United States
2815407656	Trigg S Cafe	307 Dennis St	Humble	TX	77338-4966	United States
7136915364	Arandas Taqueria	6503 Airline Dr	Houston	TX	77076-3509	United States
7135221999	Taco Milagro	2555 Kirby Dr	Houston	TX	77019-6320	United States
7135324070	SRO SPORTS BAR & CAFÉ	2517 S Gessner Rd	Houston	TX	77063-2007	United States
7138501010	Landry's Restaurants, Inc. dba Saltgrass Steak House	1510 West Loop S	Houston	TX	77027-9505	United States
2815783800	Red River BBQ & Grill	1711 S Mason Rd	Katy	TX	77450-5920	United States
2813374092	A and D Interests Inc	3200 Gulf Fwy	Dickinson	TX	77539-4115	United States
7135291212	Goode Co Barbeque Hall-Flame	5015 Kirby Dr	Houston	TX	77098-5009	United States
7136600778	Brisket Bar-B-Q  Inc. / Gatherings at Bellaire Banquet Centers	5208 Bissonnet St	Bellaire	TX	77401-3910	United States
7136664644	Fadi'S Mediterranean Grill	4738 Beechnut St	Houston	TX	77096-1637	United States
7134550060	Cafe Ko Restaurant	12740 East Fwy Ste A	Houston	TX	77015-5635	United States
7132254950	District 7 Grill	1508 Hutchins St	Houston	TX	77003-4337	United States
7135219008	Damians Cucina Italiana	4701 Rose St	Houston	TX	77007-5533	United States
7136866408	Pho Binh	2021 Mangum Rd	Houston	TX	77092-8529	United States
7135220995	Gravitas	807 Taft St	Houston	TX	77019-2611	United States
2813594451	Amedeos Italian Restaurant	22704 Loop 494 Ste A	Kingwood	TX	77339-2858	United States
2812986600	Jasper s Restaurant	9595 Six Pines Dr Ste 900	Spring	TX	77380-1644	United States
9362730023	Shogun	9420 College Park Dr Ste 195	Conroe	TX	77384-4546	United States
7138501010	Bubba Gump Shrimp Co.	1510 West Loop S	Houston	TX	77027-9505	United States
7135225120	Vincents	2817 W Dallas St	Houston	TX	77019-4006	United States
2814959001	Sally Jo's Catering	11129 Bellaire Blvd	Houston	TX	77072-2607	United States
7137338111	Just Ox Tails Soul Food	4207 Reed Rd	Houston	TX	77051-2713	United States
7138983646	Better on Your Body Inc	2476 Bolsover St	Houston	TX	77005	United States
8322937355	Miguel's The Cubano Food Truck	611 Trinity St	Austin	TX	78701-3330	United States
7134769096	Cowboy Red, L.C.	7545 Cherry Park Dr	Houston	TX	77095-2722	United States
7139374300	Sunbelt Steel Texas Inc.	10537 Fisher Rd	Houston	TX	77041-4083	United States
7135287744	Holiday Inn & Suites Houston Medical Center	6800 Main St	Houston	TX	77030-3302	United States
7134321626	Molinas Mexican Cafe & Cantina  Inc	5227 Buffalo Speedway	Houston	TX	77005-4203	United States
2813942100	All Stars Family Grill	26440 Fm 1093 Rd #400	Richmond	TX	77406	United States
2813640200	stir cuisine of india	25701 Interstate 45	Spring	TX	77380	United States
2813334343	cuisine india	1212 Nasa Pkwy	Houston	TX	77058-3304	United States
2813382711	Lupe Tortilla	891 W Bay Area Blvd	Webster	TX	77598-4003	United States
9792920060	Cafe Annice Inc	24 Circle Way St	Lake Jackson	TX	77566-5235	United States
7134681787	Hospitality USA	1414 Upland Dr	Houston	TX	77043-4721	United States
7139573357	Arc of Greater Houston	3737 Dacoma St	Houston	TX	77092-8905	United States
7135227602	Benjys Restaurant	2424 Dunstan Rd Ste 125	Houston	TX	77005-2566	United States
8005373354	Murphy's Deli	1704 Townhurst Dr	Houston	TX	77043-2811	United States
2818296188	Kolache Factory, Inc.	15730 Park Row Ste 150	Houston	TX	77084-4941	United States
7134330623	Beef and BUN Barbecue	4418 W Fuqua St	Houston	TX	77045-6206	United States
7132281175	Legacy Restaurants	2704 Navigation Blvd	Houston	TX	77003-1517	United States
4097625921	Roof Garden	2214 Strand St	Galveston	TX	77550-1516	United States
7137810877	My Fit Foods	7700 San Felipe St Ste 490	Houston	TX	77063-1630	United States
7137955344	Hunan Chinese Restaurant	7816 Almeda Rd	Houston	TX	77054-3235	United States
7135284651	Hunan Village Restaurant	3311 S Shepherd Dr	Houston	TX	77098-3320	United States
2815310696	Carmelos Ristorante Italiano	14795 Memorial Dr	Houston	TX	77079-5239	United States
7133962937	Jerry Built Burgers	3501 W Holcombe Blvd	Houston	TX	77025-1313	United States
8323005858	Mexican Restaurants, Inc.	12000 Aerospace Ave Ste 400	Houston	TX	77034-5576	United States
8323005858	Mission Burritos Management, L.L.C.	12000 Aerospace Ave #400	Houston	TX	77034	United States
4098667760	Crazy Joses Patio and Cafe	6420 Phelan Blvd	Beaumont	TX	77706-6047	United States
4099455519	Casa OLE No 14 Inc	3121 Palmer Hwy	Texas City	TX	77590-6721	United States
2818593773	Clay Road Auto Repair	17715 Clay Rd	Houston	TX	77084-3903	United States
2814633000	rockhouse bar & grill	5402 Highway 6 N	Houston	TX	77084-1826	United States
7135286575	Craig Kirk Desgn Kitchens Bath	3100 Timmons Ln Ste 100	Houston	TX	77027-5925	United States
7138400131	Holders Restaurants  Inc	15 Greenway Plz	Houston	TX	77046-1508	United States
2813476077	STADIA BAR & GRILL	22762 Westheimer Pkwy	Katy	TX	77450-8825	United States
4097975145	GALVESTON ISLAND CONVENTION CENTER	5600 Seawall Blvd	Galveston	TX	77551-5878	United States
9367609002	Joe's Pizza & Pasta	1604 N Frazier St	Conroe	TX	77301-1823	United States
9798462222	Smith Dairy Queens, LTD	PO BOX 3781	Bryan	TX	77805-3781	United States
4097657946	2828 Seawall Boulevard	2828 Seawall Blvd	Galveston	TX	77550-7745	United States
4097631000	The Lounge	2410 Strand St	Galveston	TX	77550	United States
4097623696	Rudy & Paco Restaurant and Bar	2028 Post Office St	Galveston	TX	77550-2022	United States
4097655155	The Loading Dock	504 25th St	Galveston	TX	77550-1704	United States
2813701706	Red River Dance Hall & Saloon	23238 State Highway 249	Tomball	TX	77375-8206	United States
7137599606	Richs	2401 San Jacinto St	Houston	TX	77002-9129	United States
7135231622	Anvil Bar and Lounge	1424 Westheimer Rd	Houston	TX	77006-2617	United States
7138685337	The Pearl Bar	4216 Washington Ave	Houston	TX	77007-5638	United States
7138964000	Railroad Crossing BBQ	14715 Hempstead Rd	Houston	TX	77040-4001	United States
4097509319	Graffitti's Cafe	2121 Strand St	Galveston	TX	77550-1632	United States
7134195312	S-Brand BBQ & Catering	22422 Three Pines Dr	Hockley	TX	77447-7077	United States
2818472222	Fresh Brew Group	11600 Big John St	Houston	TX	77038-3334	United States
7136440535	Taqueria Del Sol	8114 Park Place Blvd	Houston	TX	77017-3015	United States
8322480464	Rocman Security Solutions Inc	4771 Sweetwater Blvd	Sugar Land	TX	77479-3121	United States
7138622727	Casas Catering Inc	2811 Washington Ave	Houston	TX	77007-6025	United States
2818221500	The Tasting Room	818 Town And Country Blvd Ste 100	Houston	TX	77024-4548	United States
2813544507	Sonic Drive In	24076 Fm 1314 Rd	Porter	TX	77365-3716	United States
2813929200	China Inn Cafe	402 W Grand Pkwy S Ste 108	Katy	TX	77494-8334	United States
7138021979	Lane Productions	2802 White Oak Dr	Houston	TX	77007-2717	United States
2813130158	Taisho Japanese Restaurant Grill & Bar	16100 City Walk	Sugar Land	TX	77479-6571	United States
7138740800	Your Body Ctr	1415 California St	Houston	TX	77006-2602	United States
7132231120	Steve M Williard Llc	8100 Washington Ave Ste 1	Houston	TX	77007-1062	United States
9798264434	Thirsty Parrot Bar & Grill	13200 Fm 359 Rd	Hempstead	TX	77445-3856	United States
2815592415	Labrisa Mexican Bar & Grill	4001 Highway 146	Bacliff	TX	77518-2910	United States
2813587765	Kingwood Athletic Club Inc	806 Russell Palmer Rd	Kingwood	TX	77339-1619	United States
2813537501	Bareback Bar	19940 Kuykendahl Rd	Spring	TX	77379-3304	United States
2814958400	Apollo Construction Inc	10126 Windsor Ln	Houston	TX	77031-2830	United States
7134799399	Baker Steel	1326 Moy St	Houston	TX	77007-3207	United States
7137859900	Nick's Sports bar	1448 Wilcrest Dr	Houston	TX	77042-2200	United States
7132238508	Magnolia Ballroom	715 Franklin St	Houston	TX	77002-1612	United States
7135232428	Mia Bella	16535 Southwest Fwy Suite 2510	Sugar Land	TX	77479	United States
7135217800	Local Foods	2424 Dunstan Rd	Houston	TX	77005	United States
2819807482	Gringo's Mexican Kitchen	12330 Southwest Fwy	Stafford	TX	77477-3010	United States
7139939797	Houston Contract Interiors Inc	2121 Sage Rd Ste 350	Houston	TX	77056-4336	United States
7134776006	Bears Bbq	2711 Lilac St	Pasadena	TX	77503-3911	United States
7132280100	Bolsa Bbq	3718 Polk St	Houston	TX	77003-4840	United States
7137217858	New Garden Restaurant	11403 Chimney Rock Rd	Houston	TX	77035-2903	United States
2814191166	Chi Japanese Cuisine	27100 Interstate 45 N	Conroe	TX	77385-8714	United States
7135206174	Epicure Bakery	2005 W Gray St Ste C	Houston	TX	77019-3624	United States
7136227024	Crapittos Restaurant	2400 Mid Ln	Houston	TX	77027-4408	United States
7138490022	South Texas Aerials	6640 Calle Lozano Dr Ste 3	Houston	TX	77041-2658	United States
7135212239	Back Street Cafe	1103 S Shepherd Dr	Houston	TX	77019-3609	United States
2812773257	Avalanche Food Group	204 Brooks St	Sugar Land	TX	77478-3228	United States
7137811962	Jake S Philly Steaks	2944 Chimney Rock Rd	Houston	TX	77056-5907	United States
2813422066	Custom Caterers	3303 Klosterhoff Rd	Rosenberg	TX	77471-8935	United States
2814985016	Big John's Sports Bar	6150 Wilcrest Dr	Houston	TX	77072-1450	United States
2813403000	VKC I LP	322 Julie Rivers Dr	Sugar Land	TX	77478-3179	United States
7138800706	Gary Bernard Mosley	3106 White Oak Dr	Houston	TX	77007-2722	United States
7138616331	Nundini Enterprises Inc	500 N Shepherd Dr Ste A	Houston	TX	77007-1301	United States
7138490900	Classic Deli Supply	6208 Nyoka St	Houston	TX	77041-5312	United States
7136647964	Charlie's Bar-B-Q & Catering	4803 Bissonnet St	Bellaire	TX	77401-4028	United States
7136508805	Ed's Cafe	1100 Lawson St	Houston	TX	77023-0031	United States
2814803337	Perry's Restaurant Group	1051 Pineloch Dr Ste 800	Houston	TX	77062-2738	United States
2813601436	Raffa's Waterfront Grill	1660 W Lake Houston Pkwy Ste 103	Kingwood	TX	77339-2576	United States
2819317654	Jimmy Gs Restaurant	307 N Sam Houston Pkwy E	Houston	TX	77060-2401	United States
2815855046	Parks Restaurant	2422 S Gordon St	Alvin	TX	77511-4718	United States
7135201748	P JS Sports Bar	614 W Gray St	Houston	TX	77019-4447	United States
8325930071	Jade Bamboo Chinese Restaurant	7029 Barker Cypress Rd	Cypress	TX	77433-1209	United States
7138401111	RDG Bar Annie	1800 Post Oak Blvd	Houston	TX	77056	United States
2812650303	Panda Garden Restaurant 1st CL	3563 Highway 6	Sugar Land	TX	77478-4404	United States
7137251468	RADIO LOUNGE	12926 Dairy Ashford Rd	Sugar Land	TX	77478-3293	United States
2813190200	Humble City Cafe LLC	200 E Main St	Humble	TX	77338-4515	United States
7135823844	Gotham Pizza	777 Dunlavy St	Houston	TX	77019-1949	United States
7139262649	Lenox Barbecue & Catering	5420 Harrisburg Blvd	Houston	TX	77011-4234	United States
7136646698	Lemon Grass Cafe	5109 Bellaire Blvd	Bellaire	TX	77401-4419	United States
7135330200	Mockingbird Bistro	1985 Welch St	Houston	TX	77019-6121	United States
7135221330	Tintos Restaurant	2015 W Gray St	Houston	TX	77019	United States
7136295565	Canyon Cafe	5000 Westheimer Rd Ste 250	Houston	TX	77056-6670	United States
7134503611	Royal Palace Cabaret	12910 East Fwy	Houston	TX	77015-5710	United States
2818941930	Crazy Frog Saloon	17776 State Highway 249 Ste 39	Houston	TX	77064-1015	United States
2814791950	Cowboy Ranch Grill And Cantina	6915 Spencer Hwy	Pasadena	TX	77505-1801	United States
2815011788	Absolve Wine Lounge	920 Studemont St	Houston	TX	77007	United States
7137842653	Big Woodrow's Bar & Grill	3111 Chimney Rock Rd	Houston	TX	77056-6237	United States
4099351200	Big Daddys Smokehouse Grill	3145 Highway 6	Hitchcock	TX	77563-2622	United States
7132281175	The Original Ninfa's on Navigation	2704 Navigation Blvd	Houston	TX	77003-1517	United States
2812556357	Mel's Country Cafe	24814 Stanolind Rd	Tomball	TX	77375-3170	United States
2815402700	Harvey Trigg Barbeque Inc	1414 1st St E	Humble	TX	77338-4928	United States
2813627874	The Crush Bar	20 Waterway Ave	Spring	TX	77380-3196	United States
2814499975	The Yesterday Cafe	14825 Willis St	Houston	TX	77039-1025	United States
2812989338	Steel City Pizzeria	501 Sawdust Rd	Spring	TX	77380-2368	United States
7135205993	Logan Famrs Honey Glazed Hams & Market Cafe	2512 Rice Blvd	Houston	TX	77005-3221	United States
2814463566	Aromas Itln Pannini Sandwich	20131 Highway 59 N Ste 1144	Humble	TX	77338-2311	United States
7134900431	Laff Stop Inc	1952 W Gray St Ste A	Houston	TX	77019-4825	United States
4097403555	Hawthorne Suites Victorian Resort	6300 Seawall Blvd	Galveston	TX	77551-2219	United States
2814633435	Ha Ha Restaurant	4369 Highway 6 N	Houston	TX	77084-3446	United States
2813620774	Guadalajara - Casual Dining	27885 Interstate 45	Spring	TX	77380-1145	United States
7136234691	Mj's Cafe	3418 Locke Ln	Houston	TX	77027-4139	United States
7139610462	Nelson Cafe	1980 Post Oak Blvd	Houston	TX	77056-3899	United States
2815685115	Mikki's Cafe	10500 W Bellfort St	Houston	TX	77031	United States
2812518930	Mia Bella Restaurant	110 Vintage Park Blvd	Houston	TX	77070	United States
2813381261	Pam'S Place Bar & Grill	512 Valley Dr	Dickinson	TX	77539-4017	United States
2813649555	Pallotta'S Italian Grill	27606 Interstate 45 N	Conroe	TX	77385-8724	United States
4255589119	Otto's Barbecue and Hamburgers	5502 Memorial Dr	Houston	TX	77007-8002	United States
7138711903	Luling City Market Bar-B-Q	4726 Richmond Ave	Houston	TX	77027-6604	United States
7136397370	Cafe Express Museum	5601 Main St	Houston	TX	77005-1823	United States
7136663008	Flying Pig Pizza	5311 Weslayan St	Houston	TX	77005-1047	United States
7136836700	LITTLE BITTY BURGER BARN	5503 Pinemont Dr	Houston	TX	77092-2619	United States
7135262800	Istanbull Grill & Deli	5613 Morningside Dr	Houston	TX	77005-3218	United States
7139611201	George's Greek Cafe	550 Post Oak Blvd Ste 430	Houston	TX	77027-9410	United States
2812288100	Fune Sushi	1900 Tidal Rd	Deer Park	TX	77536-2416	United States
2814466717	Chez Nous French Restaurant	217 S Avenue G	Humble	TX	77338-4716	United States
7136733007	Cafe Campagne	221 Portwall St	Houston	TX	77029-1307	United States
2818957717	B & S Cafe Inc	4422 Fm 1960 Rd W Ste 300	Houston	TX	77068	United States
7138637029	Broken Spoke Cafe	1809 Washington Ave	Houston	TX	77007-6130	United States
7135243863	Artex Restaurant Group	2515 River Oaks Blvd	Houston	TX	77019-5827	United States
2818333000	Caddy Shack Cafe	3505 S Dairy Ashford St	Houston	TX	77082-5513	United States
9362714200	Tailgator's Pub and Grill	8000 Highway 242	Conroe	TX	77385-4342	United States
7136225327	Back In Time Cafe	2425 West Loop S Ste 120	Houston	TX	77027-4208	United States
2813914167	Babaloo International Cafe	22756 Westheimer Pkwy	Katy	TX	77450	United States
7138719722	Piatto Ristorante	4925 W Alabama St	Houston	TX	77056-5700	United States
2813983232	Kim Chi's Korean Cafe	17748 Katy Fwy	Houston	TX	77094-1336	United States
2815868430	Casa Mexican Restaurant The	2209 Fm 1960 Rd W	Houston	TX	77090	United States
2813261512	Seabrook Classic Cafe	2511 Nasa Pkwy	Seabrook	TX	77586-3474	United States
2813134000	Brookstreet LLC	1418 Highway 6	Sugar Land	TX	77478-4907	United States
2812567700	Papa Fajitas	15202 Mason Rd Ste 100	Cypress	TX	77433-9910	United States
7136655103	Hanks Ice Cream Parlor	9291 Main St	Houston	TX	77025-4498	United States
7138690061	Nguyen Lan	504 Roy St	Houston	TX	77007-5245	United States
7134503402	Dusters	12712 Woodforest Blvd	Houston	TX	77015-2774	United States
7137900900	actrt	8515 Holt St	Houston	TX	77054-4000	United States
7136589282	Cogwheels Inc	14019 Southwest Fwy Ste 301	Sugar Land	TX	77478-3598	United States
9797934207	Wild	11819 Puska Rd	Needville	TX	77461-9331	United States
2814448444	Healthy Lunch Box	12019 Misty Valley Dr	Houston	TX	77066-2736	United States
9363363054	Youngblood Wholesale	726 Wallisville Rd	Liberty	TX	77575-9139	United States
7136991693	Catering by George Inc	906 North Loop E	Houston	TX	77009-1448	United States
2815852272	Barbed Rose Steakhouse and Seafood Co	113 E Sealy St	Alvin	TX	77511-2440	United States
2814915253	Live Oak Grill	12935 Dairy Ashford Rd	Sugar Land	TX	77478-3101	United States
2815787173	Elegant Epicurean Catering   LLC	19330 Foxtree Ln	Houston	TX	77094-3441	United States
7135324900	BIG TEXAS PIZZA N MORE	2825 S Kirkwood Rd	Houston	TX	77082	United States
2819333330	Pro-Tech Restoration	11702 Beechnut St	Houston	TX	77072-4104	United States
7132272283	Pizzitola's Bar-B-Cue	1703 Shepherd Dr	Houston	TX	77007-2242	United States
7138719700	Rolando's Restaurant	4265 San Felipe St Ste 350	Houston	TX	77027-2999	United States
2816610025	The Union Kitchen	4057 Bellaire Blvd	Houston	TX	77025-1121	United States
7137475100	Beaucoup Bar & Grill	3102 Old Spanish Trl	Houston	TX	77054-2200	United States
7136670666	Essie's Pizzeria & Italian Kitchen	4505 Bissonnet St	Bellaire	TX	77401-3101	United States
7133391122	Tradicao Brazilian Steakhouse	6800 Southwest Fwy	Houston	TX	77074-2104	United States
2106871818	Scenic Loop Cafe	PO BOX 45	Kemah	TX	77565-0045	United States
2815342500	Dickinson BBQ & Steakhouse	2111 Fm 517 Rd E	Dickinson	TX	77539-8660	United States
2815782267	Canton Chinese Restaurant	2002 Fry Rd Ste 116	Houston	TX	77084-5834	United States
7132368868	Kim Phung Restaurant-	2200 Jefferson St	Houston	TX	77003-5131	United States
7132302200	Ginos Pizzeria & Restaurant	8441 Gulf Fwy Ste 600	Houston	TX	77017-5051	United States
9798658589	Uncle Bill's Pizza	1428 S Front St	Bellville	TX	77418-3307	United States
7134121886	Restaurant Cornputer Solutions	5300 Memorial Dr Ste 420	Houston	TX	77007-8228	United States
2813339300	Hilton	3000 Nasa Pkwy Ste 125	Houston	TX	77058-4351	United States
7132780808	Engine House Cafe	7414 Cook Rd	Houston	TX	77072-2234	United States
9799643739	High Five	7805 Fm 2918 Rd	Brazoria	TX	77422-7700	United States
7139267265	Marbella Banquet Hall	6632 Harrisburg Blvd	Houston	TX	77011-4430	United States
7135235780	Jackson and Company	1600 River Oaks Blvd	Houston	TX	77019-1299	United States
7136224224	tiny boxwood's	3614 W Alabama St	Houston	TX	77027-5906	United States
2815987610	Sweet Mesquite Companies, Inc	14902 Sommermeyer St Ste 190	Houston	TX	77041-5308	United States
2818751996	Christine K Jonte & Associates	222 Pennbright Dr	Houston	TX	77090-5921	United States
7139837679	529-BBQ	12512 Fm 529 Rd	Houston	TX	77041-2721	United States
7136652900	100% Taquito	3245 Southwest Fwy	Houston	TX	77027-7503	United States
7138642328	Beaver's	2310 Decatur St	Houston	TX	77007-7519	United States
2817454416	Cardinal SW Houston	4801 Woodway Dr	Houston	TX	77056-1888	United States
2813597944	Kingwood Cove Day School And Child Care Centre	1101 Hamblen Rd	Kingwood	TX	77339-4012	United States
7137710641	Southwest Inn	6855 Southwest Fwy	Houston	TX	77074-2103	United States
4096212630	Salsas Seaside Cafe Inc	4604 Seawall Blvd	Galveston	TX	77551-5897	United States
2813620362	BT's Grill	399 Sawdust Rd	Spring	TX	77380-2242	United States
7135292891	Kahns Deli	2429 Rice Blvd	Houston	TX	77005-3202	United States
2814801600	Lauras Cafe	2339 Bay Area Blvd	Houston	TX	77058-2009	United States
5123439100	Big Papas Bar B Que	1911 Barronett Bnd	Sugar Land	TX	77478-2581	United States
2813602530	Cafe Dubois	2845 Center St	Houston	TX	77007-0060	United States
7138612233	BRC Gastropub	519 Shepherd Dr	Houston	TX	77007-5348	United States
7139608472	Kiran's	4100 Westheimer Rd	Houston	TX	77027-4400	United States
7136605942	Adair Family Restaurants Groups	5564 Weslayan St	Houston	TX	77005-1942	United States
7132222291	Global Coffee Company	2202 Lamar St	Houston	TX	77003-3523	United States
7136733764	Port Houston Bar-Rstrnt Supply	8013 Stedman St	Houston	TX	77029-3863	United States
7137335687	Harlon's Bar-B-Q-House	6930 Martin Luther King Jr Blvd	Houston	TX	77033-1920	United States
7135244433	Cafe Chino	3285 Southwest Fwy	Houston	TX	77027-7503	United States
7138805111	Laurenzo's Grill	4412 Washington Ave	Houston	TX	77007-5642	United States
2818908000	Willowbrook Mall	2000 Willowbrook Mall	Houston	TX	77070-5787	United States
4097891119	Stacey's Creative Cuisine	6023 Stewart Rd Suite 123	Galveston	TX	77551-5419	United States
2813525510	Cypress Connection	PO BOX 517	Cypress	TX	77410-0517	United States
7136698658	Auntie Pasto's	5101 Bellaire Blvd	Bellaire	TX	77401-4419	United States
9364998462	Arbors of Willis	13078 Fm 2432 Rd	Willis	TX	77378-5944	United States
2818290333	La Olla Restaurant	3616 N Fry Rd	Katy	TX	77449-8667	United States
2819982272	Casa Mariachi	5824 Spencer Hwy	Pasadena	TX	77505-2304	United States
2812555510	Enchanted Cottage Bakery	25435 Fm 2978 Rd Ste 115	Tomball	TX	77375-2679	United States
7132239181	Industrial Fire Equipment Company	204 N Palmer St	Houston	TX	77003-1615	United States
7135920020	Pasha Restaurant	2325 University Blvd	Houston	TX	77005-2641	United States
7139264790	Pollo Campero	2410 S Wayside Dr	Houston	TX	77023-5333	United States
2815309382	Hickory Barn BBQ	11534 S Wilcrest Dr	Houston	TX	77099-4753	United States
2818071091	Luigi's Ristorante Italiano	12779 Jones Rd	Houston	TX	77070-4648	United States
2813918833	Tokyo Steak & Sushi	22762 Westheimer Pkwy Suite	Katy	TX	77450	United States
2814869888	Masa Sushi Japanese Restaurant	977 Nasa Pkwy	Houston	TX	77058-3039	United States
2812820935	United Texas Realtors	17000 El Camino Real Ste 107	Houston	TX	77058-2632	United States
2815856434	Smoothie Espresso	173 Tovrea Rd Ste A	Alvin	TX	77511-2962	United States
7137901900	Holiday Inn Astrodome @ Reliant Park	8111 Kirby Dr	Houston	TX	77054-1705	United States
7136269950	Princes Hamburgers	3899 Southwest Fwy	Houston	TX	77027-7515	United States
9363362725	Mas Amigos Inc	2400 N Main St	Liberty	TX	77575-3815	United States
2814952436	Lopez Corp	11606 S Wilcrest Dr	Houston	TX	77099-4755	United States
2819968300	R and R Sports Bar	3338 E Fm 528 Rd	Friendswood	TX	77546-5012	United States
2818073002	Sandtrap Grill Trap Mgt LLC	7900 N Sam Houston Pkwy W	Houston	TX	77064-3425	United States
7135212027	Raven Grill the	1916 Bissonnet St	Houston	TX	77005-1645	United States
7136613663	Buffalo Grille Inc	3116 Bissonnet St	Houston	TX	77005-4021	United States
2813350700	The Egret Bay Ball Room	18301 Egret Bay Blvd	Houston	TX	77058-3253	United States
2815344429	Sonic Drive-in	4401 Highway 3	Dickinson	TX	77539-6840	United States
2813795433	Jape Inc	22432 State Highway 249	Houston	TX	77070-1529	United States
2819885889	My Linh Cosmetics and Accessor	11209 Bellaire Blvd	Houston	TX	77072-2536	United States
7138022144	69 Heights Inc	69 Heights Blvd	Houston	TX	77007-5817	United States
2814691234	Primetime Steakhouse	9275 Fm 1960 Rd W	Houston	TX	77070	United States
7138389560	Tokyohana Grill and Sushi Bar	3239 Southwest Fwy	Houston	TX	77027-7503	United States
2818592663	Sonic Drive In	16710 Clay Rd	Houston	TX	77084-4010	United States
2813620808	Amerigos Grill	25250 Grogans Park Dr	Spring	TX	77380-2175	United States
7139939966	Post Oak Grill	1415 S Post Oak Ln	Houston	TX	77056-2803	United States
8322375880	Hido Japanese Grill And Sushi	17395 State Highway 249 Ste 3j	Houston	TX	77064-1165	United States
7135282264	Ouisies Table	3939 San Felipe St	Houston	TX	77027-3928	United States
2814123710	Pearland Head Start	3322 E Walnut St Ste 105	Pearland	TX	77581-4305	United States
2813342284	Joes Crab Shack - Va Inc	555 Bradford Ave	Kemah	TX	77565-2314	United States
7137778084	Babilonia Discoteque	8320 Southwest Fwy	Houston	TX	77074-1603	United States
7135284313	Ninos Restaurant And Bar Inc	2701 W Dallas St	Houston	TX	77019-4139	United States
7135227654	Tilas Restaurante And Bar	1111 S Shepherd Dr	Houston	TX	77019-3609	United States
9365391500	Tuts Bar And Grill	711 Madeley St	Conroe	TX	77301-2254	United States
2814987890	Quan Yin Vegetarian Restaurant	10804 Bellaire Blvd	Houston	TX	77072-2757	United States
7136290700	corellis italian cafe	2121 Sage Rd Ste 370	Houston	TX	77056-4338	United States
7139378039	della carts inc	6405 Brittmoore Rd Ste 16	Houston	TX	77041-5140	United States
9364486440	walden golf and country club	13301 Walden Rd	Montgomery	TX	77356-5386	United States
2815311661	Edible Designs By Jessie	3403 Hornbeam Dr	Houston	TX	77082-3127	United States
2813986066	Einsteins Pub	873 S Mason Rd Ste 360	Katy	TX	77450-3932	United States
2815680044	Nguyen Ngo French Cafe	11210 Bellaire Blvd Ste 138	Houston	TX	77072-2528	United States
2812861603	Greater Houston Search Dogs	6906 County Road 167	Alvin	TX	77511-6968	United States
7139412282	B And s Joint	3550 S Richey St	Houston	TX	77017-7100	United States
7135205025	Mi Luna	2441 University Blvd	Houston	TX	77005-3226	United States
7136221098	German And Cohn PC	745 Heights Blvd	Houston	TX	77007-1539	United States
7137299861	Annies Hamburgers	10821 S Post Oak Rd	Houston	TX	77035-3101	United States
2812778383	Cafe Goo Goo Yen	1730 Williams Trace Blvd Ste L	Sugar Land	TX	77478-4055	United States
7135206896	Byzantio Cafe Bar	403 W Gray St	Houston	TX	77019-4442	United States
7134556500	Iguana Joes Mexican Restaurant	12611 Woodforest Blvd Ste F	Houston	TX	77015-3457	United States
2813880646	Adame Julie And Stansel Joanne	1607 Prince Dr	Alvin	TX	77511-3728	United States
7134530288	Northshore Sales Inc	13903 Muscatine St Ste D	Houston	TX	77015-5160	United States
7136808689	Mueckes Shrimp Boiler	3822 Harland Dr	Houston	TX	77092-6222	United States
7136211452	Kubos Japanese Restaurant	2414 University Blvd Ste 200	Houston	TX	77005-3256	United States
7138801688	Golden Hunan Chinese Rest	5801 Memorial Dr	Houston	TX	77007-8013	United States
7139600888	Orient Express	5175 Westheimer Rd Ste 3290	Houston	TX	77056-5509	United States
2814989779	A1 Taxbooks	11169 Beechnut St Ste B	Houston	TX	77072-4341	United States
2813333180	Mediterraneo Market And Cafe	18033 Upper Bay Rd	Houston	TX	77058-3509	United States
7134262100	Ihop	6508 Washington Ave	Houston	TX	77007-2113	United States
7135234753	Shiva Investments Inc	2514 Times Blvd	Houston	TX	77005-3225	United States
2814616466	Space City Ice Station	18150 Gulf Fwy	Friendswood	TX	77546-2722	United States
2813598489	Mencius Gourmet Hunan	1379 Kingwood Dr	Kingwood	TX	77339-3037	United States
7134510593	Baytown Seafood	14602 Woodforest Blvd	Houston	TX	77015-3144	United States
2814769971	Bosa Donuts	3117 Center St	Deer Park	TX	77536-5061	United States
7134806814	Substation Services Inc	2502 Hatfield Rd	Pearland	TX	77581-7884	United States
9797988500	Armadillo Ballroom Inc	7100 County Road 400	Brazoria	TX	77422-7669	United States
7135222010	Lucky's Pub	801 St Emanuel St	Houston	TX	77003-3030	United States
7138611313	Spaghetti Western Italian Cafe	1608 Shepherd Dr	Houston	TX	77007-3461	United States
8326617786	Dine Hill	11003 Sacaton Dr	Houston	TX	77086-1443	United States
2819551422	houston-party-rentals.com	9215 Thomasville Dr	Houston	TX	77064-2025	United States
2819551422	houston-moonwalks.com	9215 Thomasville Dr	Houston	TX	77064-2025	United States
7136608200	Chick-fil-A Holcombe and Buffalo Speedway	3101 W Holcombe Blvd	Houston	TX	77025-1533	United States
4095501179	The Goose s Acre Bistro & Irish Pub	21 Waterway Ave Ste 140	Spring	TX	77380-3128	United States
2817121617	EatGoodExpress.com	1622 Sawdust Rd Ste a5	Spring	TX	77380-2933	United States
2816025454	Espresso ETC!	594 Sawdust Rd	Spring	TX	77380-2215	United States
7138229290	Rio 24 Cigar and Premium Bar	24 Waterway Ave Ste 110	Spring	TX	77380-3391	United States
2812968464	Martinis & More	311 Sawdust Rd	Spring	TX	77380-2240	United States
9362733220	Mama Juanita s Mexican Restaurant	8000 Highway 242 Ste 110	Conroe	TX	77385-4358	United States
2813673774	Dosey Doe	25911 Interstate 45	Spring	TX	77380-3509	United States
2813640475	Chick-fil-A of The Woodlands	1660 Lake Woodlands Dr	Spring	TX	77380-3261	United States
2814198550	Brothers Pizza Express	6700 Woodlands Pkwy Ste 100	Spring	TX	77382-2576	United States
7138628707	Dan Electros Guitar Bar	1031 E 24th St	Houston	TX	77009-1711	United States
2812908799	Catering Critter Sitters	8814 Rollick Dr	Tomball	TX	77375-8003	United States
2813588967	Savannah Rose Bnquet Fcilities	23838 Highway 59 N	Kingwood	TX	77339-1531	United States
7138693344	Rockefeller Hall	3620 Washington Ave	Houston	TX	77007-5939	United States
7135234205	Wine Society of Texas	2318 Huldy St	Houston	TX	77019-6522	United States
7138570720	El Pupusodromo Inc	18 Berryview Ct	Spring	TX	77380-3380	United States
2813539393	DC Kitchens Baths	2731 Spring Stuebner Rd Ste C	Spring	TX	77389-4834	United States
7137235800	Bycon Construction	7302 Belle Glen Dr	Houston	TX	77072-2802	United States
2818762611	Fuddruckers	403 Greens Rd	Houston	TX	77060-2101	United States
2814894241	Armour Homes	20211 Highway 6	Manvel	TX	77578-3805	United States
7136800682	American Heli-arc Welding	5009 Pinemont Dr	Houston	TX	77092-3533	United States
7133552000	Bombay Brasserie Indian Rstrnt	5160 Richmond Ave	Houston	TX	77056-6702	United States
7136279207	Sunflower Deli	1717 Saint James Pl Ste 112	Houston	TX	77056-3412	United States
7138697074	Hofbrau Steaks	1803 Shepherd Dr	Houston	TX	77007-2244	United States
8322376969	OZ Bar	9558 Fm 1960 Rd W	Houston	TX	77070	United States
2814743973	Neptune Subs	1917 Bayport Blvd	Seabrook	TX	77586-2806	United States
7136622183	D Amicos Italian Market Cafe	5510 Morningside Dr Ste 140	Houston	TX	77005-3248	United States
2814440919	Dessert Connection	301 Wells Fargo Dr Ste 4	Houston	TX	77090-4034	United States
7135292420	Blalock Properties	2520 Amherst St	Houston	TX	77005-3238	United States
7139745442	Martha George LLP	1100 W Dallas St	Houston	TX	77019-4641	United States
2815906412	Alma Latina	4920 Aldine Mail Rd	Houston	TX	77039-4822	United States
7139269008	Bonita Casa	4702 Rusk St	Houston	TX	77023-1236	United States
2813958530	Times Square Entertainment	402 W Grand Pkwy S Ste 110	Katy	TX	77494-8334	United States
7136227800	Red Pepper Chinese Restaurant	5626 Westheimer Rd	Houston	TX	77056-4002	United States
2813781800	Lindsay Lakes	16536 Mueschke Rd	Cypress	TX	77433-1486	United States
7138400010	Capone'S BAR & Oven	4304 Westheimer Rd	Houston	TX	77027-4810	United States
9798264290	Bluebonnet Herb Farms Inc	2105 13th St	Hempstead	TX	77445-6648	United States
4099352888	Total Wellness Spa Inc	6807 Emmett F Lowry Expy	Texas City	TX	77591-2546	United States
2814870240	Pasadena Livestock Show	7601 Red Bluff Rd	Pasadena	TX	77507-1035	United States
2815401616	W W Diving Co.	1307 1st St E	Humble	TX	77338-4925	United States
7135208841	Cafe Rabelais	2442 Times Blvd	Houston	TX	77005-3223	United States
9797936210	Lad's Smoke House & Catering	3731 School St	Needville	TX	77461-8365	United States
8325393257	Yia Yia Mary's GREEK KITCHEN	4747 San Felipe St	Houston	TX	77056-3905	United States
7134603938	Pavilion on Gessner	2500 Gessner Dr	Houston	TX	77080-3802	United States
2815289771	Gianna Italian Kitchen	28301 State Highway 249 Ste 100	Tomball	TX	77375-6551	United States
7138693237	International Billiards	2311 Washington Ave	Houston	TX	77007-6140	United States
3015050671	Chrome Connect	3275 Brinkley Rd	Temple Hills	MD	20748-6301	United States
3016211621	Auto Collision Inc	7706 Race Rd	Jessup	MD	20794-9772	United States
7036452300	Allstate Auto Glass Inc	2800 Juniper St	Fairfax	VA	22031-4411	United States
3019265090	Military Training Technology	1300 Piccard Dr Ste 200	Rockville	MD	20850-4375	United States
3019265090	Military Advanced Education	1300 Piccard Dr Ste 200	Rockville	MD	20850-4375	United States
3019265090	Military Geospatial Technology	1300 Piccard Dr Ste 200	Rockville	MD	20850-4375	United States
5712291300	National Interest Security Company, An IBM Company	3050 Chain Bridge Rd	Fairfax	VA	22030-2834	United States
7035254009	Levines Rstrtons Shrpening Services	4801 7th St N	Arlington	VA	22203-1419	United States
7032399238	Pegasus Technology Inc	11007 Hampton Rd	Fairfax Station	VA	22039-2303	United States
3012081347	Protech Automotive Inc	8211 Snouffer School Rd	Gaithersburg	MD	20879-1596	United States
7038787100	Cowles Ford Inc	13779 Noblewood Plz	Woodbridge	VA	22193-1446	United States
7039342664	CARFAX	5860 Trinity Pkwy Ste 600	Centreville	VA	20120-1998	United States
7034809100	REI Systems, Inc.	200 Fairbrook Dr Ste 104	Herndon	VA	20170-5283	United States
4107711997	Rosez Rental Inc	1 Beaver Ct Ste 2	Cockeysville	MD	21030-2232	United States
4109875914	Del Toyota Inc	2945 E Lincoln Hwy	Coatesville	PA	19320-2428	United States
3019489111	King Automotive Group	PO BOX 7340	Gaithersburg	MD	20898-7340	United States
4108768800	Len Stoler Inc	1001 Baltimore Blvd	Westminster	MD	21157-7023	United States
4104617000	Norris Acura West	8559 Baltimore National Pike	Ellicott City	MD	21043-4202	United States
4106791400	Thompson Toyota	1101 Business Center Way	Edgewood	MD	21040-1505	United States
7034353000	Wiygul Automotive Clinic	630 Grant St	Herndon	VA	20170-4702	United States
3043404500	Royal Automotive	1901 Patrick Street Plz	Charleston	WV	25387-2435	United States
3042551406	Hometown Subaru	117 Midtown Ave	Mount Hope	WV	25880-8843	United States
3042427313	Wheeling Subaru	PO BOX 2038 East	Wheeling	WV	26003-0238	United States
3044285111	Louis Thomas Subaru Inc	636 7th St	Parkersburg	WV	26101-5227	United States
4106667777	Valley Motors Inc	9800 York Rd	Cockeysville	MD	21030-4914	United States
6022663522	Mountain America Credit Union	805 E Thunderbird Rd Ste 101	Phoenix	AZ	85022-5336	United States
6022638888	Asian Bank of Arizona	668 N 44th St Ste 123	Phoenix	AZ	85008-6521	United States
4809171831	Primerica Financial Service	1128 E Orchid Ln	Gilbert	AZ	85296-9708	United States
4805581060	Northstar Financial Group	1640 S Stapley Dr Ste 133	Mesa	AZ	85204-6673	United States
6023812090	Arizona Bank	2036 E Camelback Rd	Phoenix	AZ	85016-4711	United States
6022356000	National Bank of Arizona	6001 N 24th St Bldg C	Phoenix	AZ	85016-2041	United States
6025228900	Checkmate	2415 E Camelback Rd Ste 560	Phoenix	AZ	85016-9212	United States
6023893500	Western Alliance Bancorp	1 E Washington St Ste 1400	Phoenix	AZ	85004-2559	United States
5205442166	The Bank of Tescott	600 S Santa Fe Ave	Salina	KS	67401-4148	United States
6022402700	Arizona Business Bank	2700 N Central Ave	Phoenix	AZ	85004-1133	United States
6029925055	The Biltmore Bank of Arizona	5055 N 32nd St N	Phoenix	AZ	85018-1401	United States
6022747500	Meridian Bank, N.A.	2001 W Wickenburg Way Ste 2	Wickenburg	AZ	85390-2298	United States
6235369862	West Valley National Bank	12725 W Indian School Rd Ste c108	Avondale	AZ	85392-9523	United States
6026430030	Arizona Multi Bank	101 N 1st Ave	Phoenix	AZ	85003-1902	United States
6022779530	BJC Communications	340 E Palm Ln	Phoenix	AZ	85004-4603	United States
6022245800	Camelback Community Bank	2777 E Camelback Rd Ste 100	Phoenix	AZ	85016-4348	United States
4809699610	Kelly's Kawasaki	817 S Country Club Dr	Mesa	AZ	85210-3537	United States
4802818200	Goldwater Bank, NA	7135 E Camelback Rd	Scottsdale	AZ	85251-1262	United States
4805856995	Infinity Capital	9933 E Bell Rd Ste 130	Scottsdale	AZ	85260-2509	United States
4803137898	Askenazi.com	6333 N Scottsdale Rd Unit 16	Scottsdale	AZ	85250-5428	United States
6022333601	penny man	777 W Chandler Blvd	Chandler	AZ	85225	United States
4807044867	Prosperity Community Partners	16605 E Palisades Blvd Ste 110	Fountain Hills	AZ	85268-3716	United States
6024435900	ELECTRONIC PAYMENT PROVIDERS, INC	2800 N 44th St Ste 1100	Phoenix	AZ	85008-1591	United States
4805960883	Central Arizona Bank	7001 N Scottsdale Rd Ste 1000	Paradise Valley	AZ	85253-3667	United States
4806495100	MESA BANK	63 E Main St Ste 100	Mesa	AZ	85201-7422	United States
6235841844	Ken Meade Realty	13802 W Meeker Blvd Attn: Dick Ritzwoller	Sun City West	AZ	85375-4422	United States
6024042976	First Edition Community Cr Un	10440 N 32nd Street	Phoenix	AZ	85028-3825	United States
6024944198	Phoenix Committee On Foreign Relations	3851 E Thunderbird Rd Ste 111	Phoenix	AZ	85032-5720	United States
4803581000	Gateway Commercial Bank	6860 E Warner Rd	Mesa	AZ	85212-2138	United States
6022566945	Central Arizona Shelter Services	230 S 12th Ave	Phoenix	AZ	85007-3101	United States
4802379200	Jimenez Consulting Solutions	10450 N 74th St Ste 160	Scottsdale	AZ	85258-1051	United States
9288558300	Xanadu Condo Resort	276 Lake Havasu Ave S Ste a13	Lake Havasu City	AZ	86403-6573	United States
4804519054	Baseball Teaching Venture Inc	9705 E Mountain View Rd	Scottsdale	AZ	85258-5235	United States
6022524191	talktomario.com	906 W Mcdowell Rd	Phoenix	AZ	85007-1730	United States
6234631440	BANK 1440	1402 N 24th St	Phoenix	AZ	85008-4619	United States
6029960060	International Realty Services	11811 N Tatum Blvd	Phoenix	AZ	85028-1614	United States
4808392626	Infinity National Bank	7505 S Mcclintock Dr	Tempe	AZ	85283-5042	United States
4807269581	Sun Valley Group Inc	2050 S Cottonwood Dr	Tempe	AZ	85282-3014	United States
4804619765	National Mitigation & Conservation Banking Conference	6543 E Omega St	Mesa	AZ	85215-1053	United States
4807269450	Wealth Strategies USA	5339 N 26th St Suite 100	Phoenix	AZ	85016-3636	United States
4806242600	Sunrise Bank Of Arizona	4350 E Camelback Rd Ste 100a	Phoenix	AZ	85018-2702	United States
6023461800	Metro Phoenix Bank	4686 E Van Buren St Ste 190	Phoenix	AZ	85008-6963	United States
4806495100	Mesa Bank	63 E Main St Ste 100	Mesa	AZ	85201-7422	United States
4802047366	Amvesco Group LLC	4402 E Happy Coyote Trl	Cave Creek	AZ	85331-4075	United States
4802334235	US AssetAid LLC	19777 N 76th St Suite 2330	Scottsdale	AZ	85255	United States
4806563049	Advance Benefit Funding Sources	9060 E Via Linda Ste 250	Scottsdale	AZ	85258-5425	United States
4807266500	East Valley Community Bank	1940 N Alma School Rd	Chandler	AZ	85224-2841	United States
6023936000	Sun State Insurance Agency	2301 W Glendale Ave Ste 3	Phoenix	AZ	85021-7694	United States
6028405550	Bank Of Arizona	5050 N 44th St	Phoenix	AZ	85018-1655	United States
4806639077	Pinnacle Bank	14287 N 87th St Ste 123	Scottsdale	AZ	85260-3698	United States
6026831234	Arizona Federal	PO BOX 60070	Phoenix	AZ	85082-0070	United States
4809229966	Trefethen And Co.	8601 N Scottsdale Rd Ste 320	Paradise Valley	AZ	85253-2746	United States
8888574067	Alliance Bank of Arizona	4646 E Van Buren St Ste 100	Phoenix	AZ	85008-6949	United States
4805570077	American First Financial LLC	535 E Southern Ave	Mesa	AZ	85204-4928	United States
6022772500	RepulicBankAZ N.A.	909 E Missouri Ave	Phoenix	AZ	85014-2650	United States
4806242616	Sunrise Bank of Arizona	4350 E Camelback Rd Ste 100a	Phoenix	AZ	85018-2702	United States
6028406009	Heritage Bank	4222 E Camelback Rd Ste 100j	Phoenix	AZ	85018-2776	United States
4803368400	First National Bank of Scottsdale	15190 N Hayden Rd	Scottsdale	AZ	85260-2512	United States
6022224603	Bank Usa	3636 N Central Ave Ste 100	Phoenix	AZ	85012-1929	United States
6237760800	Arrowhead Community Bank	17235 N 75th Ave Ste b100	Glendale	AZ	85308-0869	United States
6023851524	QuanCap	3040 N 44th St	Phoenix	AZ	85018	United States
4802180670	Western International Staff	11202 E Germann Rd	Mesa	AZ	85212-8678	United States
6023936950	Sonoran Bank Na	3877 N 7th St Ste 150	Phoenix	AZ	85014-5086	United States
4804640328	Selah The GROUP-Tsg	123 N Centennial Way	Mesa	AZ	85201-6748	United States
4809987998	Cross Commercial Properties	8410 E Via Del Parque	Scottsdale	AZ	85258-3205	United States
6022224600	BankUSA N.A. Corporate Headquarters	2222 E Camelback Rd	Phoenix	AZ	85016-3428	United States
6022831460	Colonia Bank	3033 N Central Ave	Phoenix	AZ	85012-2809	United States
4808445900	John Hall & Associates	4677 S Lakeshore Dr	Tempe	AZ	85282-7162	United States
4804565194	The Holcomb Law Firm  P.C.	1334 E Chandler Blvd Ste 5	Phoenix	AZ	85048-6268	United States
4808333997	AZ Furniture Bank Inc	25 N Extension Rd	Mesa	AZ	85201-7103	United States
6026785400	Summit Pharmacy  Inc.	2320 W Peoria Ave	Phoenix	AZ	85029-4753	United States
6022630669	Shelly Berry	51 E Camelback Rd Ste 100	Phoenix	AZ	85012-1625	United States
4809223800	Az Investments  Llc.	7110 E Mcdonald Dr	Paradise Valley	AZ	85253-5426	United States
4805022595	Pacstar Capital Partners LLC	PO BOX 4668	Cave Creek	AZ	85327-4668	United States
4802757699	Desert Mansions - Phyllis Jackson Realto	3910 S Alma School Rd Ste 1	Chandler	AZ	85248-4498	United States
4808396600	Keller Williams East Valley	2077 E Warner Rd Ste 110	Tempe	AZ	85284-3458	United States
4804237400	Adobe Equities Llc	8485 E Mcdonald Dr Suite 301	Scottsdale	AZ	85250-6335	United States
6029957400	John Hall & Associates	7227 N 16th St Ste 170	Phoenix	AZ	85020-5293	United States
4807604000	PREMIER COMMERCIAL BANK ARIZONA  NA	1910 S Stapley Dr Ste 137	Mesa	AZ	85204-6677	United States
6024674000	Arizona State Savings Cr Un	5859 W Talavi Blvd Ste 100	Glendale	AZ	85306-1870	United States
4808893700	Homesmart	1745 S Alma School Rd Ste 115	Mesa	AZ	85210-3010	United States
5202194218	R-n-KO Real Estate  L.L.C.	12112 Rancho Vistoso Suite 150	Tucson	AZ	85737	United States
4803488785	Nathan and Associates Inc	7600 E Doubletree Ranch Rd Ste 100	Scottsdale	AZ	85258-2135	United States
4808601391	Elaine Albu	13940 E Geronimo Rd	Scottsdale	AZ	85259-3722	United States
4809617665	Monarch Pools	6893 W Ivanhoe St	Chandler	AZ	85226-1641	United States
4804517122	Doubtful Accounts	13103 N 103rd St	Scottsdale	AZ	85260-9077	United States
6026927704	Act Logic	4539 N 22nd St Ste 100	Phoenix	AZ	85016-4637	United States
6234864500	Act Two Productions	10440 N 63rd Ave	Glendale	AZ	85302-1113	United States
4803143049	Dedicated To Women	15095 N Thompson Peak Pkwy	Scottsdale	AZ	85260-2874	United States
6029538110	graded currency iraqi dinar exchange at gradedcurrency	4531 E Cholla St	Phoenix	AZ	85028-2313	United States
4809480550	thehortonteam.com	4542 E Via Dona Rd	Cave Creek	AZ	85331-3205	United States
4807780798	Greenbrier Southwest Corporation	10881 N Scottsdale Rd Ste 203	Scottsdale	AZ	85254-6714	United States
6022346143	AGAPE Network	PO BOX 33758	Phoenix	AZ	85067-3758	United States
6023313400	Express Teller Services LLC	9855 N 19th Dr Ste 1	Phoenix	AZ	85021-1946	United States
4804430687	PHI Leasing Inc	8545 E Pepper Tree Ln	Scottsdale	AZ	85250-4912	United States
4809511990	Ann and Clifford Bengis	4844 E Onyx Ave	Paradise Valley	AZ	85253-1032	United States
6023818994	Eye Specialists of AZ	3033 N 44th St Ste 269	Phoenix	AZ	85018-7228	United States
6239776310	Certified Fiduciary Service	10765 Grand Ave	Sun City	AZ	85351-3452	United States
4804641300	Suites of America	825 S Dobson Rd	Mesa	AZ	85202-2901	United States
4803919390	Mueller Randy CLU Cpcu	10575 N 114th St Ste 111	Scottsdale	AZ	85259-4908	United States
6027397060	Serinova Financial	4757 E Greenway Rd	Phoenix	AZ	85032-8513	United States
4808201122	Ganem Jewelers	4409 S Rural Rd	Tempe	AZ	85282-7083	United States
6022794417	MO Money Pawn	1152 E Indian School Rd	Phoenix	AZ	85014-4813	United States
7344255150	Americas Best Value Inn	28512 Schoolcraft Rd	Livonia	MI	48150-2222	United States
2482772001	The Baronette Hotel Detroit-Novi	27790 Novi Rd	Novi	MI	48377-3422	United States
3138877000	Motor City Hospitality  Llc	1020 Washington Blvd	Detroit	MI	48226-2613	United States
7349812900	Remerica Country Place	44205 Ford Rd	Canton	MI	48187-3177	United States
2484714880	Alternative Services Inc	32625 7 Mile Rd Ste 10	Livonia	MI	48152-4270	United States
2488792100	Nh Motel Enterprises Inc	5500 Crooks Rd	Troy	MI	48098-2806	United States
7347693010	Bell Tower Hotel	300 S Thayer St	Ann Arbor	MI	48104-1608	United States
5173720217	Nip-n-sip Catering Inc	16441 S Us Highway 27	Lansing	MI	48906-5632	United States
7347826600	Big Bear Lodge	25253 Telegraph Rd	Flat Rock	MI	48134-1005	United States
7347692200	Campus Inn	615 E Huron St	Ann Arbor	MI	48104-1524	United States
8007722323	The Atheneum	1000 Brush St	Detroit	MI	48226-2906	United States
2486437800	Somerset Inn-Troy	2601 W Big Beaver Rd	Troy	MI	48084-3305	United States
3132534352	The Henry Autograph Collection	Town Ctr Dr	Dearborn	MI	48126	United States
7346626000	Four Seasons	2281 W Liberty St	Ann Arbor	MI	48103-4405	United States
3138951727	The Inn at 97 Winder	5237 Commonwealth St Apt 1s	Detroit	MI	48208-1758	United States
3138877000	The Holiday Inn Express Hotel & Suites Downtown Detroit	1020 Washington Blvd	Detroit	MI	48226-2613	United States
3138733000	Detroit	3071 W Grand Blvd	Detroit	MI	48202-3004	United States
5174586100	Tng Industries Inc	599 W Chestnut St	Morenci	MI	49256-1052	United States
2489609975	Hospitality House	142 E Walled Lake Dr	Walled Lake	MI	48390-3552	United States
4072515600	Ann Arbor Bed and Breakfast	120 W Huron St	Ann Arbor	MI	48104-1318	United States
9894962700	Valley Plaza Resort R.v. Park	5221 Bay City Rd	Midland	MI	48642-6351	United States
3134068853	VCA Allen Park Animal Hospital	5401 Allen Rd	Allen Park	MI	48101-2925	United States
9892699951	Franklin Inn Inc	1060 E Huron Ave	Bad Axe	MI	48413-1484	United States
9898020144	Days Inn	10100 S Clare Ave	Clare	MI	48617-8924	United States
8107143803	France Journeys	12381 N Fenton Rd	Fenton	MI	48430-9724	United States
9897344130	Malibu Inn	478 N Third St	Rogers City	MI	49779-1369	United States
9898371010	Midland Hotel Development Co LLC	2100 W Wackerly St	Midland	MI	48640-6738	United States
3138716000	Inn On Ferry Street	84 E Ferry St	Detroit	MI	48202-3802	United States
8107658877	Anchor Inn Motel	6000 River Rd	East China	MI	48054-4730	United States
3138244400	wolverine human services inc	17000 E Warren Ave	Detroit	MI	48224-2358	United States
5869792626	Van Dyke Sport Center Inc	32501 Van Dyke Ave	Warren	MI	48093-1089	United States
2483441178	Tcl Group Inc	21956 Siegal Dr	Novi	MI	48375-4965	United States
7347617800	Kensington Court Hotel	610 Hilton Blvd	Ann Arbor	MI	48108-1620	United States
8106679444	BEST WESTERN	770 West St	Lapeer	MI	48446-3065	United States
7347287900	Clarion Barcelo Hotel Detroit Metropolitan Airport	8600 Merriman Rd	Romulus	MI	48174-1918	United States
8107361203	Richfield House	4478 N Vassar Rd	Flint	MI	48506-1743	United States
2483070226	Paperback Trade Inn	145 E 14 Mile Rd	Clawson	MI	48017-2171	United States
7346979178	Lodge Lanes	46255 S Interstate 94 Service Dr	Belleville	MI	48111-2400	United States
8107320571	Cross Stitch Inn the	5487 Pineway Ave	Swartz Creek	MI	48473-9406	United States
3139634780	Lofts Of Merchants Row	1247 Woodward Ave	Detroit	MI	48226-2025	United States
3135632200	Dearborn Bed And Breakfast Inc	22331 Morley Ave	Dearborn	MI	48124-2131	United States
3135338400	Shree Corp	26825 Grand River Ave	Redford	MI	48240-1544	United States
2483555534	Dees Vacation Shoppe	22405 Riverdale Dr	Southfield	MI	48033-5952	United States
3139622300	Leland the	400 Bagley St Apt 2017	Detroit	MI	48226-1341	United States
8002503630	Four Points by Sheraton Ann Arbor	PO BOX 2291	Ann Arbor	MI	48106-2291	United States
2489609700	kentucky trailer technologies	1240 N Pontiac Trl	Walled Lake	MI	48390-3139	United States
5867738940	Shores Inn Food and Spirits	23410 Greater Mack Ave	Saint Clair Shores	MI	48080-3424	United States
5867277562	Medi Lodge of Richmond	34901 Division Rd	Richmond	MI	48062-1559	United States
8109855550	Harrington Inn	1026 Military St	Port Huron	MI	48060-5454	United States
7344203399	Corporate Comfort	340 N Main St Ste 304	Plymouth	MI	48170-1250	United States
2486158500	Paw Print Inn  Inc.	41249 Vincenti Ct	Novi	MI	48375-1927	United States
8109848000	Thomas Edison Inn	500 Thomas Edison Pkwy	Port Huron	MI	48060-2900	United States
8102391234	Character Inn	1 Riverfront Ctr W	Flint	MI	48502-1320	United States
7344534490	Beginners Inn	7505 N Canton Center Rd	Canton	MI	48187-1504	United States
3134421600	The Westin Book Cadillac Detroit	1114 Washington Blvd	Detroit	MI	48226-1907	United States
8106867088	Royal View Resort	5108 W Wilson Rd	Clio	MI	48420-9461	United States
7347297555	Marriott Hotels & Resorts	30559 Flynn Dr	Romulus	MI	48174-2239	United States
5868237094	LOGICACMG	26999 Central Park Blvd	Southfield	MI	48076-4174	United States
7347288080	Rose Foote's Special Event Catering Company	6371 Commerce Dr	Westland	MI	48185-1922	United States
8104458585	cosmopolitan-travel	22313 Greater Mack Ave	Saint Clair Shores	MI	48080-2357	United States
7347276000	Hilton	31800 Smith Rd	Romulus	MI	48174-1939	United States
8107360404	Creative Catering  Inc.	4031 Richfield Rd	Flint	MI	48506-2008	United States
7345720912	Bistro Bar & Grill	4735 Washtenaw Ave	Ann Arbor	MI	48108-1411	United States
3132711600	Best Western Greenfield Inn	3000 Enterprise Dr	Allen Park	MI	48101-3529	United States
2489601511	Foundry Designs Inc	1424 Cranberry Ct	Wixom	MI	48393-1618	United States
3132913000	Days Inn	10780 Telegraph Rd	Taylor	MI	48180-3325	United States
7342840200	Billy Walker Evangelistic	15221 Eureka Rd	Southgate	MI	48195-2647	United States
2486833340	village place	4710 Cooley Lake Rd	Waterford	MI	48327-2809	United States
2484788060	gehring lp limited partnership	24800 Drake Rd	Farmington Hls	MI	48335-2506	United States
2486340803	Holly Hills Campsites Inc	7072 Grange Hall Rd	Holly	MI	48442-9737	United States
3139625638	Lafayette Loft	1301 W Lafayette Blvd	Detroit	MI	48226-3004	United States
7346651771	T Shirt Studio	1217 Prospect Ave	Ann Arbor	MI	48104-3946	United States
2483449429	906 Main Housing	41199 Coventry Rd	Novi	MI	48375-5222	United States
2485433299	Wooden Acres	25120 E Roycourt	Huntington Woods	MI	48070-1715	United States
7347414969	Vitosha Inc	1917 Washtenaw Ave	Ann Arbor	MI	48104-3654	United States
8104999340	B And M Tower Technologies Inc	4460 Fenton Rd	Hartland	MI	48353-1404	United States
7349440091	Play And Learn Childrens Place	440 W Russell St	Saline	MI	48176-1184	United States
2485695405	Jacks Place North Inc	27881 Southfield Rd	Southfield	MI	48076-3415	United States
3135275615	Ajs Place Inc	11601 Whittier St	Detroit	MI	48224-1537	United States
5867279163	Cook Hotel	68339 Beech St	Richmond	MI	48062-1215	United States
2488875900	Comeback Inn	1451 S Milford Rd	Highland	MI	48357-4864	United States
8107361496	Coldwater Place	4318 E Coldwater Rd	Flint	MI	48506-1054	United States
7349945549	Nutrition Magician	2300 Packard St	Ann Arbor	MI	48104-6322	United States
5867543434	Amber House	7012 E 9 Mile Rd	Warren	MI	48091-2640	United States
8107651488	Sundowner Trailer Sales Mich	5275 Palms Rd	Casco	MI	48064-3903	United States
7349944004	Red Hawk Corp	316 S State St	Ann Arbor	MI	48104-2412	United States
5867921902	Chaplins Comedy Club	34244 Groesbeck Hwy	Clinton Township	MI	48035-3356	United States
7346419617	Cic Industries Inc	6740 Cypress Ste 200	Romulus	MI	48174-3555	United States
3132744499	Park Place Catering Co Inc	23400 Park St	Dearborn	MI	48124-2545	United States
2486287656	Serenidad Shardon	5222 Woodlane Rd	Clarkston	MI	48348-3164	United States
3138697500	Normandie Hotel	11626 Woodward Ave	Detroit	MI	48202-1131	United States
2486663500	ADI SHUTTLE GROUP LLC	6544 Highland Rd	Waterford	MI	48327-1607	United States
7349718000	lamppostinn.com	2424 E Stadium Blvd	Ann Arbor	MI	48104-4813	United States
2483488762	Fountain Walk of Novi!	44125 W 12 Mile Rd stee124	Novi	MI	48377-1980	United States
7347618000	Prime Student Housing  Inc	610 Church St	Ann Arbor	MI	48104-3002	United States
5869789876	grandprixcities	5205 Chadbourne Dr	Sterling Heights	MI	48310-5121	United States
2483565396	TravelBuddies	1198 Charrington Rd	Bloomfield Hills	MI	48301-2113	United States
3133310903	clubtravelers	PO BOX 507	Saint Clair Shores	MI	48080-0507	United States
2486611998	detroitbridal.com	31134 Applewood Ln	Farmington Hls	MI	48331-1212	United States
3137619666	condohotline.com	3025 Boardwalk St	Ann Arbor	MI	48108-3230	United States
2486899140	The Inn at St	2075 W Big Beaver Rd Ste 300	Troy	MI	48084-3439	United States
8107650068	The Heather House Bed and Breakfast	409 N Main St	Marine City	MI	48039-3438	United States
7349812900	Remerica Country Place	44205 Ford Rd	Canton	MI	48187-3177	United States
7349812900	Remerica Country Place	44205 Ford Rd	Canton	MI	48187-3177	United States
7349812900	Remerica Country Place	44205 Ford Rd	Canton	MI	48187-3177	United States
7344626000	Embassy Suites	19525 Victor Pkwy	Livonia	MI	48152-1081	United States
7344623100	Detroit Marriott Livonia	17100 Laurel Dr	Livonia	MI	48152-2952	United States
7344622000	Courtyard By Marriott	17200 N Laurel Park Dr	Livonia	MI	48152-3915	United States
7344587111	Comfort Inn	29235 Buckingham St	Livonia	MI	48154-4573	United States
7344678000	The Metropolitan Hotel	31500 Wick Rd	Romulus	MI	48174-1900	United States
2485949616	Bible Point	2909 Summervale Ln	Bloomfield Hills	MI	48301-3438	United States
7347690653	The Artful Lodger	1547 Washtenaw Ave	Ann Arbor	MI	48104-3122	United States
7344646302	Trinity House Theatre	38840 6 Mile Rd	Livonia	MI	48152-2605	United States
5175524944	Bright Building Co Inc	6009 Latson Ct	Howell	MI	48855-6729	United States
2484764448	Old Homestead Associates Inc	36796 Quakertown Ln	Farmington Hls	MI	48331-3886	United States
3134961400	Cork Town Inn	1331 Trumbull St	Detroit	MI	48216-1376	United States
3138346868	God S House of Prayer	12929 Joy Rd	Detroit	MI	48228-2639	United States
7346768422	Ford Yacht Club	29500 Southpointe Rd	Grosse Ile	MI	48138-2073	United States
2483488191	Chase Simmons Industries Inc	22732 Woolsey	Novi	MI	48375-4567	United States
8109858203	Imprint House	1113 Military St	Port Huron	MI	48060-5418	United States
5867583800	Spence Industries Inc	23888 Dequindre Rd	Warren	MI	48091-1823	United States
8107988240	Skyline Conference Center	5650 Sandhill Rd	Almont	MI	48003-9744	United States
2484882018	Everest Hotel Brokers LLC	28593 Wintergreen	Farmington Hls	MI	48331-3014	United States
7344851622	Ypsilanti Animal Clinic	37 Ecorse Rd	Ypsilanti	MI	48198-5710	United States
5175481736	Wildwood Ranch	4909 Brophy Rd	Howell	MI	48855-9747	United States
2486250800	Pine Knob Ski Resort	7778 Sashabaw Rd	Clarkston	MI	48348-4750	United States
7347615491	Phi Alpha Kappa	1010 E Ann St	Ann Arbor	MI	48104-1616	United States
3138721646	Omega PSI Phi Fraternity House	235 E Ferry St	Detroit	MI	48202-3811	United States
2486260628	Camp-R-Cruise Inc	4679 Dixie Hwy	Waterford	MI	48329-3518	United States
5869391097	Challengers Boxing Gym	8200 Irving Rd	Sterling Heights	MI	48312-4621	United States
8107362300	Pineview Estates Corporate Office	6152 N Genesee Rd	Flint	MI	48506-1122	United States
2483497800	Hotel Baronette, Inc	27790 Novi Rd	Novi	MI	48377-3422	United States
7349464300	Days Inn Detroit Metro Airport	9501 Middlebelt Rd	Romulus	MI	48174-2511	United States
2483494000	SHERATON DETROIT NOVI	21111 Haggerty Rd	Novi	MI	48375-5305	United States
8564291820	Stanford Flowers Inc	830 Kings Hwy S	Cherry Hill	NJ	08034-2529	United States
3026544422	Bloomsberry Flowers LTD	1801 Delaware Ave	Wilmington	DE	19806-2351	United States
2156744900	W. Atlee Burpee & Co.	300 Park Ave	Warminster	PA	18974-4860	United States
8566917881	C And M Greenhouses, Retail Division	470 Union Rd	Vineland	NJ	08360-9364	United States
6108612999	Rose Boutique Unique Floral Studio	1423 Main St	Bethlehem	PA	18018-2315	United States
6107599060	Mycalyn Florals	30 S Main St	Nazareth	PA	18064-2036	United States
2152887931	Ideal Florists	2645 Orthodox St	Philadelphia	PA	19137-1635	United States
6102623501	Bobs Flower Shop	1214 Main St	Northampton	PA	18067-1609	United States
2153617410	Blossoms Etc Inc	2333 W Main St	Lansdale	PA	19446-1346	United States
6108692426	Conard-Pyle Company	372 Rosehill Rd	West Grove	PA	19390-9701	United States
8564613359	Flagg'S Flowers & Garden Ctr	4320 Bridgeboro Rd	Moorestown	NJ	08057-3732	United States
3026588699	Flowers Online Inc	PO BOX 904	Montchanin	DE	19710-0904	United States
2157257500	Wanners Flowers Inc	1901 Cottman Ave	Philadelphia	PA	19111-3816	United States
2156723050	Tree House Flowers and Gifts	540 W Street Rd	Warminster	PA	18974-3223	United States
8562730340	All American Flowers and Gifts	4201 Church Rd Ste 12	Mount Laurel	NJ	08054-2231	United States
8569830055	Bakanas Flowers	27 N Maple Ave	Marlton	NJ	08053-1753	United States
3022275725	Bayberry Flowers Inc	715 Rehoboth Ave Ste 1	Rehoboth Beach	DE	19971-3100	United States
2158367330	Coupe Flowers	625 Bethlehem Pike	Glenside	PA	19038-8233	United States
6102692651	Elaines Flowers Greenhouses	2938 Conestoga Rd	Glenmoore	PA	19343-9516	United States
2158849130	Penny's Flowers	263 N Keswick Ave	Glenside	PA	19038-4803	United States
8566783613	Walton's Flowers and Gifts	199 N Broadway	Pennsville	NJ	08070-1417	United States
2156376370	Maureens Flowers	3826 Morrell Ave	Philadelphia	PA	19114-1915	United States
2158241819	Philadelphia Flower Co Inc	12343 Academy Rd	Philadelphia	PA	19154-1927	United States
2156466500	Ambler Flower Shop	107 E Butler Ave	Ambler	PA	19002-4425	United States
2154675501	All Occasions Flowers, Ltd.	1002 South St	Philadelphia	PA	19147-1930	United States
6102796073	Blue Bell Flower Shoppe Inc	1214 Skippack Pike	Blue Bell	PA	19422-1247	United States
2159252882	Old City Flowers	31 S 3rd St	Philadelphia	PA	19106-2801	United States
2154731842	Overhill Flowers	6231 Lancaster Ave	Philadelphia	PA	19151-2619	United States
2153436198	Amelia's Flowers & Gifts	2291 Bristol Rd	Warrington	PA	18976-1515	United States
6107919132	Mary B's Flower Shop	1555 Lehigh St	Allentown	PA	18103-3813	United States
6106311660	Moles Flower And Gift Shop	3000 W Main St	Norristown	PA	19403-1539	United States
2153553066	Fireside Flowers	1043 2nd Street Pike	Richboro	PA	18954-1803	United States
6105828791	Cedar Hill Flowers Corp	PO BOX 206	Birdsboro	PA	19508-0206	United States
6106875451	Valley Forge Flowers	503 W Lancaster Ave Ste 300	Wayne	PA	19087-3183	United States
2157224500	Sallys Flowers Inc	7944 Oxford Ave	Philadelphia	PA	19111-2225	United States
2158841106	Foxs Jenkintown Flower Shop	419 Cedar St	Jenkintown	PA	19046-2720	United States
2157362320	Richards Flower Market Inc	305 W Trenton Ave	Morrisville	PA	19067-3501	United States
6108331888	Ridleys Rainbow Of Flowers	168 Fairview Rd	Woodlyn	PA	19094-1705	United States
2152574653	clairs flower shop incorporate	308 W Callowhill St	Perkasie	PA	18944-4802	United States
3027373931	Kirk Flowers	7 Ash Ave	Newark	DE	19711-5501	United States
2155474550	Flowers by Jennie Lynne	519 S Oxford Valley Rd	Fairless Hills	PA	19030-2612	United States
6104894421	Risher Van Horn Flowers	3760 Germantown Pike	Collegeville	PA	19426-3109	United States
6103636550	Whitford Flowers	167 W Lincoln Hwy	Exton	PA	19341-2615	United States
6102251793	flower sculpture	105 Manor Rd	Paoli	PA	19301-1810	United States
2159972590	Bonnies Flowers	517 W Butler Ave	Chalfont	PA	18914-2218	United States
2156740450	LeRoy's Flowers	16 N York Rd Null	Hatboro	PA	19040-3201	United States
6106308825	Plaza Flowers	417 Egypt Rd	Norristown	PA	19403-3405	United States
8563362912	MARYJANE'S FLOWERS & GIFTS	111 W White Horse Pike	Berlin	NJ	08009-1230	United States
6103850404	Flowers Of Eden Inc	1139 Ben Franklin Hwy W	Douglassville	PA	19518	United States
2156394208	A Fashionable Flower Boutique	1470 Street Rd	Bensalem	PA	19020-4218	United States
2154731842	Overhill Flowers	6231 Lancaster Ave	Philadelphia	PA	19151-2695	United States
8562310551	All American Flowers & Gifts	PO BOX 334	Mount Laurel	NJ	08054-0334	United States
6109488999	Beth Ann's Flowers	426 Main St	Royersford	PA	19468-2304	United States
8566782700	Ford Flower Shop	256 N Virginia Ave	Penns Grove	NJ	08069-1120	United States
8564274334	Flower Boutique	1211 Kings Hwy N	Cherry Hill	NJ	08034-1929	United States
2153871290	A Green Thing Balloons, Flowers and Gift Baskets	3901 Market St	Philadelphia	PA	19104-3144	United States
3026545013	Brinton's Flower Shop	701 S Union St	Wilmington	DE	19805-4101	United States
8566626000	Clover Gardens and Flowers	1017 S Church St	Mount Laurel	NJ	08054-2507	United States
2153798787	Blake Florists	5 Huntingdon Pike Apt 1	Jenkintown	PA	19046-4324	United States
2152566400	HARLEYSVILLE FLORIST & GODIVA	274 Hunsberger Ln	Harleysville	PA	19438-1812	United States
2154935656	Ye Olde Yardley Florist	175 S Main St Ste 8	Yardley	PA	19067-1623	United States
6104598500	Country Porch Florist & Gardens	1785 Wilmington Pike	Glen Mills	PA	19342-8171	United States
2152956662	Marrazzo's Manor Lane Florist	1301 Yardley Rd	Yardley	PA	19067-3337	United States
6105820662	Mutschler's Florist & Rare Plants	6601 Perkiomen Ave	Birdsboro	PA	19508-9146	United States
8569317193	Cook's Florist Inc	815 N Black Horse Pike	Runnemede	NJ	08078-1035	United States
2152472455	Rothe Florists	7148 Germantown Ave	Philadelphia	PA	19119-1843	United States
6104329315	Baker's Florist	134 Ridge Ave	Allentown	PA	18101-1924	United States
2157887861	Bristol Florist	401 Dorrance St	Bristol	PA	19007-3902	United States
8562340444	All That Blossoms Florist	3111 Route 38	Mount Laurel	NJ	08054-9754	United States
6106965200	Halladay Florist	29 S Church St	West Chester	PA	19382-3246	United States
6103636020	Mancuso's Florist and Gift Shop	16373 Harper Ave	Detroit	MI	48224-2628	United States
6104959954	Limerick Florist	683 N Lewis Rd	Royersford	PA	19468-1280	United States
6103239614	Pottstown Florist	300 E High St	Pottstown	PA	19464-5538	United States
6105213366	Ridley Park Florists Inc	17 E Hinckley Ave	Ridley Park	PA	19078-2101	United States
2158559258	Chantilly Floral Boutique	29 W Main St	Lansdale	PA	19446-2522	United States
3024923367	Bobola Farm & Florist	5268 Forrest Ave	Dover	DE	19904-5108	United States
2153556430	Cherry Lane Flower Shop	757 Street Rd	Southampton	PA	18966-3921	United States
8566672101	Ziegfield Florist	14 E Main St	Maple Shade	NJ	08052-2620	United States
2152577011	Perkasie Florist	101 N 5th St	Perkasie	PA	18944-1403	United States
3026294136	Posey Palace Florist	512 W Stein Hwy	Seaford	DE	19973-1202	United States
8564689326	Lavender And Lace Florist, Gift Shoppe and Tea Room	130 Bridgeton Pike	Mantua	NJ	08051-1569	United States
6105899857	Fegley's Flowers	523 W High St	Womelsdorf	PA	19567-1415	United States
8565894172	Merritt's House of Flowers	170 S Broadway	Pitman	NJ	08071-2232	United States
8564689326	Lavender & Lace Florist and Gift	130 Bridgeton Pike	Mantua	NJ	08051-1569	United States
6109351573	Leary's Flowers	407 Gay St	Phoenixville	PA	19460	United States
6108575565	Helene's Florist and Gift Shop	317 Main St	Parkesburg	PA	19365-1009	United States
6102795540	Sunflowers by Denise	123 W Germantown Pike	Norristown	PA	19401	United States
8565460037	April Robin Florist & Gift	620 Station Ave	Haddon Heights	NJ	08035-1907	United States
3028757155	Givens Flowers & Gifts	301 W Market St	Georgetown	DE	19947-2317	United States
2158849223	In Bloom, Flowers and Gifts	1165 Old York Rd	Abington	PA	19001-3815	United States
2155983412	Geerlings Florist Inc	PO BOX 175	Pineville	PA	18946-0175	United States
8567283939	Abbott Florist	138 Fries Mill Rd Ste 5	Blackwood	NJ	08012-1600	United States
8567680045	C And J Florist	400 S Route 73	Berlin	NJ	08009-1764	United States
6108760363	Minutellas Florists Inc	4126 Edgmont Ave	Brookhaven	PA	19015-2314	United States
8564687000	Delaware Valley Wholesale Florist	520 Mantua Blvd	Sewell	NJ	08080-1022	United States
2159474669	Flower Station Inc	376 N Keswick Ave	Glenside	PA	19038-4218	United States
5707845770	Dillon Floral Corp	933 Columbia Blvd	Bloomsburg	PA	17815-8844	United States
3027645498	Village Green Flower Shop	4303 Miller Rd	Wilmington	DE	19802-1901	United States
2156744900	Heronswood Nursery	300 Park Ave	Warminster	PA	18974-4818	United States
6105948830	Blossom Boutique	611 N Pottstown Pike	Exton	PA	19341-1678	United States
2156273571	Riehs Florist	1020 N 5th St	Philadelphia	PA	19123-1404	United States
2159223115	Lisa's Flowers & Gifts	45 S 4th St	Philadelphia	PA	19106-2710	United States
8567674287	Green Lea Garden Center	204 Route 73	Voorhees	NJ	08043-9542	United States
6097040097	More Than Everything Service	95 Jamestown Blvd	Hammonton	NJ	08037-2110	United States
8566971234	Antons Florist	152 Harding Hwy	Vineland	NJ	08360-9145	United States
2158294480	Renaissance Floral Interiors	626 Market St	Philadelphia	PA	19106-2310	United States
8568450019	Sanderson and Son Florist	435 Morris St	Woodbury	NJ	08096-2691	United States
2157880451	Horace P Schmidt	421 Otter St	Bristol	PA	19007-3627	United States
6099274126	Waldor Orchids Inc	10 E Poplar Ave	Linwood	NJ	08221-2526	United States
8568452287	Grove Floral Shop	1241 Delsea Dr	Westville	NJ	08093-2254	United States
2154935656	Ye Olde Yardley Florist	175 S Main St Ste 8	Yardley	PA	19067-1623	United States
2159454114	Levittown Flower Boutique Florist	4411 New Falls Rd	Levittown	PA	19056-3005	United States
2154779481	presidentialflowers.net	3983 Ford Rd	Philadelphia	PA	19131-2807	United States
2158553850	Genuardi Florist	Sumnytown Pike &amp Valley Forge Rd	Lansdale	PA	19446	United States
6099650353	Jimmie's Florist	1030 W White Horse Pike	Egg Harbor City	NJ	08215-3138	United States
2156576700	Kremp Florist	220 Davisville Rd	Willow Grove	PA	19090-3320	United States
6096548338	Medford Florist & Gfit Shop	31 S Main St	Medford	NJ	08055-2429	United States
6105657470	Media Florist	25 E State St	Media	PA	19063-2917	United States
2158363050	Robertson's Flowers	1301 E Mermaid Ln	Glenside	PA	19038-7636	United States
6105666569	Carol Smith Studio	33 E Jefferson St	Media	PA	19063-3743	United States
6106232400	Farrells Florist	421 Burmont Rd	Drexel Hill	PA	19026-3003	United States
3305350110	Aladdins Eatery	782 W Market St	Akron	OH	44303-1048	United States
2162815599	Initiative Drive Technologies	PO BOX 21297	Cleveland	OH	44121-0297	United States
2167816784	S R Restaurant Corp	2064 Euclid Ave	Cleveland	OH	44115-2224	United States
2163610484	Ace Restaurant Equipment	1975 E 61st St	Cleveland	OH	44103-3810	United States
4409862511	Gibson Manor Inc	108 W Main St	South Amherst	OH	44001-2924	United States
4408089100	TravelCenters of America, Inc.	24601 Center Ridge Rd Ste 200	Westlake	OH	44145-5677	United States
3304254961	Serios on Square	2732 E Aurora Rd	Twinsburg	OH	44087-2152	United States
3303923020	The Mocha House	467 High St NE	Warren	OH	44481-1226	United States
4402482300	Rusty Bucket Corner Tavern	6025 Kruse Dr Ste 148	Solon	OH	44139-2379	United States
4409467181	Irish Pubs Inc	4110 Erie St	Willoughby	OH	44094-7807	United States
3307222729	Main Street Cafe	17 Public Sq	Medina	OH	44256-2203	United States
4403496400	Claddagh Irish Pub	29500 Aurora Rd Ste 10	Solon	OH	44139-7214	United States
2162418869	The Velvet Tango Room	2095 Columbus Rd	Cleveland	OH	44113-4228	United States
2165248050	Holiday Inn Cleveland-Independance	6001 Rockside Rd	Independence	OH	44131-2209	United States
3308563176	Covelli Enterprises	3900 E Market St	Warren	OH	44484-4708	United States
2165242251	Midland Food Services	6200 Rockside Woods Blvd N Ste 315	Independence	OH	44131-2343	United States
2163599000	Morgan's Foods, Inc.	4829 Galaxy Pkwy Ste S	Cleveland	OH	44128-5955	United States
2165731991	Delmonicos Steakhouse	6001 Quarry Ln	Independence	OH	44131-2201	United States
2168310505	Winking Lizard	25380 Miles Rd	Bedford	OH	44146-1322	United States
3304992248	That Little Italian Kitchen	5730 Fulton Dr NW	Canton	OH	44718-1733	United States
3304974484	J&K Subway	5508 Wales Ave NW Jackson Township	Massillon	OH	44646-9011	United States
2164330060	Front Row Bar & Gril	15119 Snow Rd	Cleveland	OH	44142-2458	United States
3304971000	Gervasi Vineyard & Italian Bistro	1700 55th St NE	Canton	OH	44721-3401	United States
4406253080	Restaurant Developers Corporation	7010 Engle Rd Ste 100	Cleveland	OH	44130-8401	United States
3308251660	Regina S Pizza	1267 W Waterloo Rd	Akron	OH	44314-1522	United States
2165213280	Mahall S Twenty Lanes	13200 Madison Ave	Lakewood	OH	44107-4813	United States
4405269292	Courtyard Cafe	7600 Chippewa Rd	Brecksville	OH	44141-2328	United States
4402863703	Hilltopper Enterprises	209 Center St	Chardon	OH	44024-1189	United States
2165213777	Creative Cafes Inc	14523 Madison Ave	Lakewood	OH	44107-4326	United States
4405267400	Zeppe'S Pizza	25780 Miles Rd Ste A	Bedford	OH	44146-1418	United States
3307334005	Wing Warehouse	2215 E Waterloo Rd	Akron	OH	44312	United States
3306599555	Teresa's Pizza	4174 Wheatley Rd	Richfield	OH	44286-9052	United States
3303767171	Tangier Restaurant & Cabaret	532 W Market St	Akron	OH	44303-1839	United States
3309283344	Roccos Pizza Shop	1053 Portage Trl	Cuyahoga Falls	OH	44221-3031	United States
3307539669	Pizza Pan	2474 Manchester Rd	Akron	OH	44314-3554	United States
4402576071	Pickle Bills	9354 Headlands Rd	Mentor	OH	44060-1004	United States
4405855800	Freeway Lanes Bowling Group	28801 Euclid Ave	Wickliffe	OH	44092-2528	United States
2164331976	Pasta Lear's Pizzeria & Deli	6310 Engle Rd	Brookpark	OH	44142-3501	United States
3307692601	The Oaks Lakeside	5878 Longacre Ln	Chippewa Lake	OH	44215-9778	United States
3304059001	Mavis Winkles Irish Pub	8870 Darrow Rd	Twinsburg	OH	44087-2178	United States
4406321939	Mary Yoders Amish Kitchen	14743 N State Ave	Middlefield	OH	44062-9379	United States
4407750118	Lorenzo's Pizzeria	5212 S Main St	Oberlin	OH	44074-1627	United States
4402866464	John Palmers	301 Center St Ste 1	Chardon	OH	44024-1143	United States
3304240001	Italos Pizza	7735 State Route 45 Ste A	Lisbon	OH	44432-8342	United States
2164640688	Hyde Park Restaurants	26300 Chagrin Blvd	Beachwood	OH	44122-4229	United States
2163828600	Hungry Howie's Pizza	4445 Mayfield Rd	Cleveland	OH	44121-3633	United States
2166218887	Harry Buffalo	2120 E 4th St	Cleveland	OH	44115-1004	United States
4407860100	Glenwillow Grille	29765 Pettibone Rd	Solon	OH	44139-5402	United States
3306302010	Gionino's Pizzeria	676 Eastwood Ave	Tallmadge	OH	44278-3139	United States
2165890464	Ginza Sushi House	2930 Prospect Ave E	Cleveland	OH	44115-2608	United States
4408919500	Geppettos Pizza and Ribs	7277 Pearl Rd	Cleveland	OH	44130-4806	United States
2168313777	Georgio's Oven Fresh Pizza	23366 Commerce Park Ste 102a	Beachwood	OH	44122-5801	United States
2165237070	Panninis Grill	1290 W 6th St	Cleveland	OH	44113-1351	United States
2166926488	Chefs For Hire	23555 Euclid Ave	Euclid	OH	44117-1703	United States
4402373434	Carrie Cerino Restaurants	8922 Ridge Rd	North Royalton	OH	44133-1869	United States
2165218600	Around The Corner Saloon	18616 Detroit Ave	Lakewood	OH	44107-3202	United States
4407351440	Angies Rib Wagon	1160 Broadway Ave	Bedford	OH	44146-4523	United States
4403493736	American Tavern And Eatery Co	28020 Miles Rd	Solon	OH	44139-1127	United States
3306866861	Altieris Pizza	3533 Kent Rd	Stow	OH	44224-4601	United States
4408085269	Three Birds Restaurant	18515 Detroit Ave	Lakewood	OH	44107-3212	United States
3307735158	Waterloo Restaurant And Catering	423 E Waterloo Rd	Akron	OH	44319-1220	United States
3307339611	Lindsay s Amber Restaurant	1500 Canton Rd Ste 148	Akron	OH	44312-4097	United States
3306774400	Riverside Wine and Imports	911 N Mantua St	Kent	OH	44240-2323	United States
4407351440	Angies RIB Wagon	1160 Broadway Ave	Bedford	OH	44146-4523	United States
2166740964	Lockkeepers	8001 Rockside Rd	Cleveland	OH	44125-0061	United States
4402321991	Light of Hearts Villa	283 Union St	Bedford	OH	44146-4578	United States
2162717700	S S Kemp & Co	4567 Willow Pkwy	Cleveland	OH	44125-1041	United States
2162517155	Arcade Tavern Inc	17007 Lorain Ave	Cleveland	OH	44111-5514	United States
3304222001	Dealers Group Limited	650 Mondial Pkwy	Streetsboro	OH	44241-5211	United States
2168611919	X O Restaurant And Bar	500 W Saint Clair Ave	Cleveland	OH	44113-1506	United States
2166631421	Cuyahoga Vending Co Inc	14250 Industrial Ave S Ste 104	Maple Heights	OH	44137-3260	United States
4409430087	La Vera Party Center	32200 Chardon Rd	Willoughby Hills	OH	44094-8443	United States
4402577214	Mentor Harbor Yachting Club	5330 Coronada Dr	Mentor On The Lake	OH	44060-1404	United States
2164818444	Euclid Heat Treating Co	1408 E 222nd St	Euclid	OH	44117-1108	United States
4403277633	little hong kong	34137 Center Ridge Rd	North Ridgeville	OH	44039-3221	United States
3309291109	golden dragon	1634 State Rd	Cuyahoga Falls	OH	44223-1304	United States
3304989992	Oscar's Cafe	5686 Dressler Rd NW	North Canton	OH	44720	United States
3309630603	dangelo catering inc	7995 Darrow Rd Ste 4	Twinsburg	OH	44087-2362	United States
4409885611	Angelo S Pizza	301 Church St	Amherst	OH	44001-2203	United States
2162810055	Johnny's Bar	3164 Fulton Rd	Cleveland	OH	44109-1450	United States
2162512131	Brennans Catering & Banquet Center	13000 Triskett Rd	Cleveland	OH	44111-2523	United States
3307692601	The Oaks Lodge	5878 Longacre Ln	Chippewa Lake	OH	44215-9778	United States
2166962767	Crop Bistro & Bar	1400 W 6th St	Cleveland	OH	44113-1305	United States
3306501955	Hudson's Restaurant & Catering	80 N Main St	Hudson	OH	44236-2827	United States
3304546611	heggysnutshop	3200 Tuscarawas St W	Canton	OH	44708-4142	United States
2167910700	Anthony's Ristorante & Wine Bar	12018 Mayfield Rd	Cleveland	OH	44106-1922	United States
3308975481	Millers Dutch Kitchn	114 W Main St	Baltic	OH	43804-9094	United States
3308230575	We're Rolling Pretzel Company	2500 W State St	Alliance	OH	44601-5603	United States
2168817676	Kocian Meats & Marketplace	4058 Saint Clair Ave	Cleveland	OH	44103-1118	United States
4402854448	Pineview Lake	10036 Wilson Mills Rd	Chardon	OH	44024-9780	United States
4402858686	Rosepointe Cottage Tea Room	107 Center St	Chardon	OH	44024-1119	United States
2165240700	Aura Bistro	5300 Rockside Rd	Independence	OH	44131-2118	United States
4403339595	Danny Boys Pizza	20251 Lake Rd	Cleveland	OH	44116-1350	United States
4405721111	Dons Pomeroy House	13664 Pearl Rd	Strongsville	OH	44136-3409	United States
2167714404	Great Lakes Brewing Co	2516 Market Ave	Cleveland	OH	44113-3434	United States
2164797717	R T J Investments Inc	1212 W 6th St	Cleveland	OH	44113-1344	United States
2164268890	Angie's Soul Food	7514 Cedar Ave	Cleveland	OH	44103-4928	United States
2167317499	Beach Club Of Bistro Inc	21939 Lake Shore Blvd	Euclid	OH	44123-1708	United States
7148797318	staticbars.com	3539 Dorwil Ct	Akron	OH	44319-2907	United States
3307246373	Guys Party Center	500 E Waterloo Rd	Akron	OH	44319-1223	United States
2169329000	Lopez Bar & Grill	2196 Lee Rd	Cleveland	OH	44118-2908	United States
2165244774	Cleveland's Pm In The Valley	7503 Granger Rd	Cleveland	OH	44125-4818	United States
2163787504	Blow It Up Balloons	2000 Auburn Dr Ste 200	Beachwood	OH	44122-4328	United States
2164412000	All Industrial	1555 Harvard Ave	Cleveland	OH	44105-3064	United States
2168618358	A J Rocco's Expresso Bar	816 Huron Rd E	Cleveland	OH	44115-1121	United States
3304778599	A A Executive Catering	5211 Tuscarawas St W	Canton	OH	44708-5054	United States
2165212540	Beck Center for the Arts	17801 Detroit Ave	Lakewood	OH	44107-3413	United States
2166217907	Spy Bar	1261 W 6th St	Cleveland	OH	44113-1301	United States
2165218187	Lakewood Controls Inc	1570 Chesterland Ave	Lakewood	OH	44107-4861	United States
4402372665	Cleats	5267 Wallings Rd	North Royalton	OH	44133-3135	United States
2162269765	El Jalapenos Authentic Mexican Restaurant	1313 W 117th St	Cleveland	OH	44107-3010	United States
2162264899	Deagan's Kitchen & Bar	14810 Detroit Ave	Lakewood	OH	44107-3910	United States
2162282285	Gatherings	17004 Madison Ave	Lakewood	OH	44107-3502	United States
2166716220	Der Braumeister Restaurant and Bier Haus	13040 Lorain Ave	Cleveland	OH	44111-2618	United States
2162284976	The Greek Village Grille	14019 Madison Ave	Lakewood	OH	44107-4501	United States
2162264450	Thai Kitchen	12210 Madison Ave	Lakewood	OH	44107-5030	United States
2162262337	Buckeye Beer Engine & Burgers	15315 Madison Ave	Lakewood	OH	44107-4020	United States
2162260056	56 West	16300 Detroit Ave	Lakewood	OH	44107-3624	United States
2162262000	Pacers	14600 Detroit Ave	Lakewood	OH	44107	United States
2162266191	Pepper's	12401 Detroit Ave	Lakewood	OH	44107-3012	United States
4402372212	Flair	12841 State Rd	North Royalton	OH	44133-3911	United States
2166227773	Lucky's Cafe	777 Starkweather Ave	Cleveland	OH	44113-4617	United States
2165839999	Parallax Restaurant & Lounge	2179 W 11th St	Cleveland	OH	44113	United States
2169388960	Bac Restaurant	2661 W 14th St	Cleveland	OH	44113-5215	United States
2163984498	Cleats Club Seat Grille	3995 Jennings Rd	Cleveland	OH	44109-2859	United States
2167419810	Maha's Cafe	3323 W 25th St	Cleveland	OH	44109	United States
2168815372	Landmark Restaurant	5380 Saint Clair Ave	Cleveland	OH	44103-1312	United States
2164529744	Athens Pizzeria	4341 Rocky River Dr	Cleveland	OH	44135-2502	United States
4409335570	Pizza Cutter	33501 Lake Rd	Avon Lake	OH	44012	United States
2162287301	Feed Me! Catering	13611 Detroit Ave	Lakewood	OH	44107-4603	United States
4409334739	A Big Show Gourmet Catering Service	635 Miller Rd	Avon Lake	OH	44012-2306	United States
4409335375	Novotny Catering	143 Lear Rd	Avon Lake	OH	44012-1904	United States
4409887100	Church Street Bar & Grille	300 Church St	Amherst	OH	44001-2204	United States
4409304801	Tucky's	377 Lear Rd	Avon Lake	OH	44012	United States
4409305570	Legacy Club Restaurant & Grill Room	750 Jaycox Rd	Avon Lake	OH	44012-2223	United States
2163419100	East Coast Pizza	4889 Turney Rd	Cleveland	OH	44125-2524	United States
2165248858	romitos pizza west	6474 Brecksville Rd	Independence	OH	44131	United States
3309234233	Lefevers River Grille Ltd	2291 Riverfront Pkwy Ste 100	Cuyahoga Falls	OH	44221-2580	United States
3307629131	M J T Capri Inc	810 W Market St	Akron	OH	44303-1034	United States
3308363553	Ivans Restaurant And Catering	2927 W Market St	Akron	OH	44333-3606	United States
4403681476	MentorAve	PO BOX 653	Mentor	OH	44061-0653	United States
2166423115	J. J. Herman & Associates  Inc.	6200 Rockside Woods Blvd N Ste 315	Cleveland	OH	44131-2343	United States
2162262020	Sittoo's Pita and Salads	14518 Detroit Ave	Lakewood	OH	44107-4317	United States
2167974897	Guys Pizza Co	861 E 222nd St	Euclid	OH	44123-3314	United States
3304253435	Rav&apos;s Creekside Tap &amp; Grill	9224 Darrow Rd	Twinsburg	OH	44087-1824	United States
2166964677	Improv Comdey Club	2000 Sycamore St	Cleveland	OH	44113-2339	United States
2163825350	Jack's Deli and Restaurant	14490 Cedar Rd	Cleveland	OH	44121-3328	United States
4404989828	Frozen Custard Inc	5235 Fairfield Oval	Solon	OH	44139-1272	United States
2165214600	Nature's Bin	18120 Sloane Ave	Lakewood	OH	44107-3108	United States
4405721546	Slim and Chubbys	12792 Prospect Rd	Strongsville	OH	44149-2972	United States
2165668100	Local Heroes Grill & Bar Llc	2217 E 9th St Ste 100	Cleveland	OH	44115-1200	United States
4409444664	Pine Ridge Country Club	30605 Ridge Rd	Wickliffe	OH	44092-1165	United States
3306442338	Upper Deck	357 W Turkeyfoot Lake Rd	Akron	OH	44319-4017	United States
4406024000	Lost Nations Sports Park	38630 Jet Center Pl	Willoughby	OH	44094-8174	United States
2164810450	J B Lasalles	837 E 185th St	Cleveland	OH	44119-2765	United States
4403929490	Gnz Inc	10864 Thwing Rd	Chardon	OH	44024-9701	United States
2164473888	Bistro At Freedom Square	6000 Freedom Square Dr	Independence	OH	44131-2577	United States
2168817312	Backstage Cafe	5000 Euclid Ave	Cleveland	OH	44103-3749	United States
3309952333	Cafe Toscano	215 W Garfield Rd	Aurora	OH	44202	United States
2166227773	Lucky's Cafe	777 Starkweather Ave	Cleveland	OH	44113-4617	United States
2167717004	Hotz Cafe Inc.	2529 W 10th St	Cleveland	OH	44113-4430	United States
2164204000	Sportservice Corp	2401 Ontario St	Cleveland	OH	44115-4003	United States
2167377687	Soupermarket Inc	2528 Lorain Ave	Cleveland	OH	44113-3413	United States
4402882051	Jackalope Bar and Rotisserie	301 Lakeside Ave	Lorain	OH	44052-2095	United States
4409748838	Imperial Dragon Restaurant	8310 Tyler Blvd	Mentor	OH	44060-4221	United States
4409467181	Mullarkey's Irish Pub	4110 Erie St	Willoughby	OH	44094-7807	United States
2162910400	Pete S Tavern	1318 Warrensville Center Rd	Cleveland	OH	44121-2216	United States
2168615515	Old Angle Tavern the	1848 W 25th St	Cleveland	OH	44113-3134	United States
4402559314	Hobnobber s Bar And Grill	9047 Mentor Ave	Mentor	OH	44060-6463	United States
2166212041	Flying Monkey Pub	819 Jefferson Ave	Cleveland	OH	44113-4638	United States
3307985544	Flash Dance Cabaret	1467 E Market St	Akron	OH	44305-4038	United States
2167817782	Flannery's Pub	323 W Prospect Ave	Cleveland	OH	44113-1405	United States
2163608688	Tang's Wok	25780 Miles Rd	Bedford	OH	44146	United States
2165665400	Marigold Cafe Catering	2800 Euclid Ave Ste 150	Cleveland	OH	44115-2430	United States
4402478595	Trifles Cafe & Catering	516 Washington St	Chagrin Falls	OH	44022-4402	United States
3303423771	Tomato Grill	106 1 St St	Hudson	OH	44236-5384	United States
3307649888	Santosuosso's Pizza-Pasta-Vino	3725 Medina Rd Ste 111	Medina	OH	44256-5301	United States
3308362806	Sky-Way Drive-In Restaurant	2781 W Market St	Akron	OH	44333-4235	United States
2166764300	Reddis Pizza And Spaghetti	15523 Snow Rd	Brookpark	OH	44142-2348	United States
4404391903	Mediterranean Party Center	25021 Rockside Rd	Bedford	OH	44146-1966	United States
4402374040	Country Parlour Ice Cream Co	12905 York Delta Dr	North Royalton	OH	44133	United States
3307232853	Medina Steakhouse & Saloon  The	538 W Liberty St	Medina	OH	44256-2224	United States
4409857429	Moosehead Grill	7660 Leavitt Rd	Amherst	OH	44001-2704	United States
3307253322	Marie's Cafe	117 Public Sq	Medina	OH	44256-2206	United States
4402561548	Olde Towne Tavern	7592 Euclid Chardon Rd	Kirtland	OH	44094-9417	United States
2167717130	light bistro	2801 Bridge Ave	Cleveland	OH	44113-3013	United States
2163573308	Indigo Indian Bistro	503 Prospect Ave E	Cleveland	OH	44115-1113	United States
2162912446	Happy Buddha Cafe	2173 S Green Rd	Cleveland	OH	44121-3313	United States
2167715652	Lola Bistro & Wine Bar	900 Literary Rd	Cleveland	OH	44113-4441	United States
3302969009	Guido's Pizza And Catering Inc	214 W Main St	Ravenna	OH	44266-2714	United States
4409449300	Giuseppe's Pizza & Subs	30441 Euclid Ave	Wickliffe	OH	44092-1528	United States
4405823431	Chuck Wagon Cafe	7100 E Pleasant Valley Rd	Independence	OH	44131-5544	United States
3306763663	Eldorado'S Pizza Pie	1331 S Water St	Kent	OH	44240-3845	United States
3304252888	Fresh Start Diner	9810 Ravenna Rd	Twinsburg	OH	44087-1715	United States
4402554334	Potpourri Fondue Restaurant	8885 Mentor Ave	Mentor	OH	44060-6211	United States
4409460003	Cafe Vivaldi	4540 Beidler Rd	Willoughby	OH	44094-4602	United States
3306668021	Brubaker's Pub	4005 Medina Rd	Akron	OH	44333-2464	United States
2163989365	Carmino's Pizza	4728 Pearl Rd	Cleveland	OH	44109-5104	United States
3308723777	Capiranos Pizza & Catering	119 Ridge Rd	Newton Falls	OH	44444	United States
3306459959	Cafe Provence	472 Portage Lakes Dr	Akron	OH	44319-2273	United States
4408428227	Astro Fireplace & Grill	5283 Pearl Rd	Cleveland	OH	44129-1550	United States
2167364242	Hilarities 4th St Theatre	2035 E 4th St	Cleveland	OH	44115-1023	United States
4402321585	Arabica Cafes Inc.	7601 First Pl	Bedford	OH	44146-6716	United States
3302256806	Buzzard s Roost Inn	2736 Center Rd	Hinckley	OH	44233-9563	United States
3302258345	Skyview Lodge	336 Pearl Rd	Brunswick	OH	44212-1120	United States
2169372288	The South Side	2207 W 11th St	Cleveland	OH	44113-3605	United States
4408360043	Station 43 Tavern	39910 Aurora Rd	Solon	OH	44139-5230	United States
3305629171	Marios International	35 E Garfield Rd	Aurora	OH	44202-8801	United States
3308259923	Hopocan Gardens	4396 Hopocan Avenue Ext	Norton	OH	44203-6796	United States
4402376040	El Charro Restaurant	13570 Ridge Rd	North Royalton	OH	44133-3842	United States
3309220467	Po Mans Corp Inc	2690 State Rd	Cuyahoga Falls	OH	44223-1644	United States
3306732991	Daniel W Kaye Inc	1321 W Main St	Kent	OH	44240-1939	United States
2165751919	Johnny Mango Inc	3120 Bridge Ave	Cleveland	OH	44113-3071	United States
3303768188	Akron Racers	1575 Firestone Pkwy	Akron	OH	44301-1645	United States
3306501883	Vue Restaurant	49 Village Way	Hudson	OH	44236-5377	United States
3303792233	Cafe Momus	491 Brown St	Akron	OH	44311-1251	United States
4407867400	Marc Anthony S Pizza	474 Northfield Rd	Bedford	OH	44146-2203	United States
2167719236	Sokolowskis University Inn	1201 University Rd	Cleveland	OH	44113-3642	United States
4403549530	Hellriegels Inn	1840 Mentor Ave	Painesville	OH	44077-1412	United States
2162521169	Luchitas Mexican Restaurant	3456 W 117th St	Cleveland	OH	44111-3578	United States
2166615967	Gus's Family Restaurant	4377 State Rd	Cleveland	OH	44109-4159	United States
3302735090	Fung Wah Restaurant	2628 Pearl Rd	Medina	OH	44256-7623	United States
2162673333	Harpo's Sports Cafe	5777 Smith Rd	Brookpark	OH	44142-2003	United States
3302255576	Mapleside Farms	294 Pearl Rd	Brunswick	OH	44212-1118	United States
2168757000	California Greenhouse Cafe	230 W Huron Rd	Cleveland	OH	44113-1418	United States
4409140523	Panera Bread	6130 Kruse Dr	Solon	OH	44139-2300	United States
2163288780	Budapest Blonde	6901 Rockside Rd	Independence	OH	44131-2379	United States
3307450449	White House Chicken	180 Wooster Rd N	Barberton	OH	44203-2561	United States
4409515109	California Salads And Catering	37488 Sturbridge Ln	Willoughby	OH	44094-6427	United States
2165249404	Dante	8111 Rockside Rd	Cleveland	OH	44125-6129	United States
4409741914	Casa D Angelo	9385 Mentor Ave	Mentor	OH	44060-6413	United States
4402680811	G And K International Inc	8304 Manorford Dr	Cleveland	OH	44129-5309	United States
4408927760	GL Direct	33625 Pin Oak Pkwy	Avon Lake	OH	44012-2321	United States
2168619914	Elan Catering  Inc.	2190 Professor Ave	Cleveland	OH	44113-3693	United States
4402698000	Dinos Restaurant  Inc.	4145 State Route 306	Willoughby	OH	44094-9269	United States
2164316665	A-1 Store Fixture  Co.	1970 E 55th St	Cleveland	OH	44103-3647	United States
2166966968	Flat Iron Cafe	1114 Center St	Cleveland	OH	44113-2406	United States
3309233664	Four Five One Barbecue Carrollton	2680 State Rd	Cuyahoga Falls	OH	44223-1605	United States
4405824303	Berardi's Fresh Roast Inc	12029 Abbey Rd	North Royalton	OH	44133-2637	United States
3307853500	Tap House	491 E Waterloo Rd	Akron	OH	44319-1241	United States
2162984451	Tremont Taphouse	2572 Scranton Rd	Cleveland	OH	44113-4315	United States
3302531013	Building 9 Inc.	945 S Main St	Akron	OH	44311-2041	United States
3303366684	Wadsworth Galaxy Rest Inc	201 Park Center Dr	Wadsworth	OH	44281-7106	United States
2162263699	Melt Bar & Grilled	14718 Detroit Ave	Lakewood	OH	44107-4102	United States
4404170220	His Majesty's on the Square	63 W Main St	Madison	OH	44057-3125	United States
8668941949	Forest Meadows Apartments	699 E Reagan Pkwy	Medina	OH	44256-1219	United States
4402483833	Imperial Wok	33825 Aurora Rd	Solon	OH	44139-3711	United States
3306447373	Cole Static Control	3539 Dorwil Ct	Akron	OH	44319-2907	United States
2163281998	Candy Coated Personalized Sweets  Inc.	PO BOX 31441	Independence	OH	44131-0441	United States
2164431722	Holiday Inn Express - Downtown Cleveland	2057 E 4th St	Cleveland	OH	44115-1023	United States
2165488617	Mavis Winkles Irish Pub	7240 Braewood Dr	Independence	OH	44131-5548	United States
4404280144	joeys italian grille	2731 Hubbard Rd	Madison	OH	44057-2931	United States
3302256122	Cherokee Hills Golf Club	5740 Center Rd	Valley City	OH	44280-9746	United States
3305414052	Annbarry Inc	3088 Crown Pointe Dr	Stow	OH	44224-5477	United States
2162265200	Creative Cafes Inc	14527 Madison Ave	Lakewood	OH	44107-4326	United States
4409887404	HOT Dog Heaven	493 Cleveland Ave	Amherst	OH	44001-1623	United States
2167813805	Moda Nightclub	1869 W 25th St	Cleveland	OH	44113-3406	United States
3308367662	Rocknes	2914 W Market St	Akron	OH	44333-3607	United States
2162717589	The Broadway Pub	10600 Broadway Ave	Cleveland	OH	44125-1649	United States
3309239964	Totally Cooked Catering	2730 Front St	Cuyahoga Falls	OH	44221-1969	United States
4409460383	Food for Thought	7574 Saint Clair Ave	Mentor	OH	44060-5234	United States
4407741978	Feve	30 S Main St	Oberlin	OH	44074-1627	United States
2162528100	Marcos Pizza	14121 Lorain Ave	Cleveland	OH	44111-3236	United States
3306572525	Brandywine Golf Course	5555 Akron Peninsula Rd	Peninsula	OH	44264-9528	United States
2165214467	Paradise Companies, LLC	16512 Detroit Ave	Lakewood	OH	44107-3628	United States
2166853200	Thirsty Parrot	812 Huron Rd E	Cleveland	OH	44115-1123	United States
4403229254	Brentwood Golf Club	12415 Grafton Rd	Grafton	OH	44044-1051	United States
3302733985	Graham Management Inc	805 Pearl Rd	Brunswick	OH	44212-2559	United States
4403544040	7481 Auburn Rd Inc	7481 Auburn Rd	Painesville	OH	44077-9703	United States
4403522649	Concord Pizza Inc	9942 Johnnycake Ridge Rd	Painesville	OH	44077-2184	United States
3309233987	Brilor Inc	1911 Bailey Rd	Cuyahoga Falls	OH	44221-4311	United States
3302743336	Mike Payne	10637 Main St	Mantua	OH	44255-9636	United States
2165668840	Mercury Lounge	1392 W 6th St	Cleveland	OH	44113-1308	United States
2167714386	Great Lakes Jet Ski Boat Rental	1148 Main Ave	Cleveland	OH	44113-2345	United States
2163572997	Bounce Night Club	2814 Detroit Ave	Cleveland	OH	44113-2708	United States
2162418463	St Clair Vineyard Group Inc	836 W Saint Clair Ave	Cleveland	OH	44113-1266	United States
2166218887	ferris steak house gateway	2120 E 4th St	Cleveland	OH	44115-1004	United States
4403544475	Depot Cafe Inc	470 Railroad St	Painesville	OH	44077-4017	United States
2164580514	Casbah Cafe	1266 W 6th St Ste 105	Cleveland	OH	44113-1330	United States
3302969483	Italian Club	644 S Chestnut St	Ravenna	OH	44266-3035	United States
4402854116	Corner Of Art And Function	209 Center St Unit G	Chardon	OH	44024-1189	United States
2163824610	Paolos Pub Inc	4368 Mayfield Rd	Cleveland	OH	44121-3665	United States
3306349900	Erie Station Grille	70 East Ave	Tallmadge	OH	44278-2351	United States
2169615151	Cleveland Motorcycle Mfg Co	4327 Lorain Ave	Cleveland	OH	44113-3716	United States
3308963396	Belgrade Gardens Inc	3476 Massillon Rd	Uniontown	OH	44685-7825	United States
4405853257	Daks	30322 Euclid Ave	Wickliffe	OH	44092-1527	United States
3302250927	Bianca s Italian Ristorante	4284 Beverly Hills Dr	Brunswick	OH	44212-1650	United States
3302531511	Mary Coyle Inc	780 W Market St	Akron	OH	44303-1048	United States
2168813663	Creative Concepts In Catering	6536 Carnegie Ave	Cleveland	OH	44103-4620	United States
2166716220	Der Braumeister Restaurant	13046 Lorain Ave	Cleveland	OH	44111-2618	United States
3303250647	Dusty Armadillo	3147 State Route 44	Rootstown	OH	44272-9685	United States
3309260751	Azar Appraisal Services	1023 Leighton Ave	Cuyahoga Falls	OH	44221-2454	United States
3306482520	White Elephant Saloon	209 E Main St	Spencer	OH	44275-9530	United States
2164470202	Johnny Ks Other Place	5907 Canal Rd	Cleveland	OH	44125-4257	United States
4409750686	the ePower Solutions  Inc	7000 Fitzwater Rd	Brecksville	OH	44141-1378	United States
8002959091	Luau Party Supplies  Ideas and Recipes for Hawaiian Theme Parties	12900 Lake Ave Apt 1717	Lakewood	OH	44107-1556	United States
3306688478	Favorable Designs	4711 Wilshire Dr	Akron	OH	44321-1178	United States
4402556935	Gas Barbecue Grill Search GrillSearch	7181 Buchanan Ct	Mentor	OH	44060-4808	United States
3309236183	Tear-Ez Online	360 S Main St	Akron	OH	44311-1014	United States
2166621383	Kit's Place	11702 Crofton Rd	Cleveland	OH	44125-3522	United States
3308649490	American Mobile Ads	506 Dickemery Dr	Akron	OH	44303-1609	United States
3306081136	Vaccaro's Trattoria	1000 Ghent Rd	Akron	OH	44333-2674	United States
4402480991	The Soup Pot	34376 Aurora Rd	Solon	OH	44139-3805	United States
2164311060	Dunham Tavern Museum	6709 Euclid Ave	Cleveland	OH	44103-3913	United States
2167410192	Ugly Broad Tavern	3908 Denison Ave	Cleveland	OH	44109-2633	United States
3306451134	Thirsty Gator Drive Thru	3727 Manchester Rd	Akron	OH	44319-2107	United States
3302539336	Bucket Shop	816 W Market St	Akron	OH	44303-1034	United States
3302735750	Skate Inc	1261 Industrial Pkwy N	Brunswick	OH	44212-4367	United States
3307249450	Bakers Lawn Service	32 Selden Ave	Akron	OH	44301-2849	United States
3306448343	Howies on the Lake	4856 Coleman Dr	Akron	OH	44319-4324	United States
2164819509	Cebar S Euclid Tavern	595 E 185th St	Cleveland	OH	44119-1673	United States
3304251277	Twinsburg Fireplace Shop	10858 Ravenna Rd	Twinsburg	OH	44087-1058	United States
3309234700	Funny Stop Comedy Club	1767 State Rd	Cuyahoga Falls	OH	44223-1305	United States
3302971000	Siciliano S Pizzaria Ravenna	974 E Main St	Ravenna	OH	44266-3326	United States
2164017288	Arthur Treachers Fish and Chips	1060 N Aurora Rd	Aurora	OH	44202-8749	United States
4407752511	Presti S of Oberlin	580 W Lorain St	Oberlin	OH	44074-1004	United States
4405854800	Mr Chicken	694 E 200th St	Cleveland	OH	44119-2353	United States
4403491678	Jim S Open Kitchen	33779 Aurora Rd	Solon	OH	44139-3709	United States
4405822000	Tonight Tonight	7375 Royalton Rd	North Royalton	OH	44133-4822	United States
4409655551	Common Ground	14240 Baird Rd	Oberlin	OH	44074-9667	United States
4409750588	Classified USA	34900 Chardon Rd Ste 209	Willoughby Hills	OH	44094-9161	United States
2167715322	Midee Resturants Inc	2033 Ontario St	Cleveland	OH	44115-1028	United States
2166616500	Cleveland Metroparks--Zoo & the Rainforest	3900 Wildlife Way	Cleveland	OH	44109-3132	United States
2167499999	Diamond Billiards Sales & Service	8003 Brookpark Rd	Cleveland	OH	44129-1115	United States
8005893420	Advanced Equipment Inc.	2104 Front St	Cuyahoga Falls	OH	44221-3260	United States
4405857700	Vittorio's buon appetito	19664 Euclid Ave	Wickliffe	OH	44092	United States
4402555488	Primozz Restaurant & Pizzeria	8887 Mentor Ave	Mentor	OH	44060-6211	United States
4406365420	Meadow Ridge Farm	17305 State Route 322	Windsor	OH	44099-9602	United States
4404398588	Astrohurst Party Place	6980 Dunham Rd	Bedford	OH	44146-4163	United States
4409531088	Noosa Bistro	7418 Mentor Ave	Mentor	OH	44060-5406	United States
2166968888	Nautica Queen Cruise Ship	1153 Main Ave	Cleveland	OH	44113-2324	United States
3307256830	Miss Molly's Tea Room	140 W Washington St Ste 6	Medina	OH	44256-2262	United States
2165217675	Create-A-Cake	17114 Detroit Ave	Lakewood	OH	44107-3623	United States
4409750202	Willoughby Brewing Co	4057 Erie St	Willoughby	OH	44094-7804	United States
4404425200	MBJ MANAGEMENT CORPORATION	7809 First Pl	Bedford	OH	44146-6707	United States